Coordinates
version=1
nRows=203
nColumns=24
inDegrees=yes

Units are S.I. units (second, meters, Newtons, ...)
If the header above contains a line with 'inDegrees', this indicates whether rotational values are in degrees (yes) or radians (no).

endheader
time	right ankle	left ankle	right knee	left knee	right hip	left hip	right shoulder	left shoulder	right elbow	left elbow	right foot	left foot	right shank	left shank	right thigh	left thigh	pelvis	trunk	shoulders	head	right arm	left arm	right forearm	left forearm
0.0	15.851984783191217	-0.7923202851292803	10.690285815061511	19.280699312087243	7.316257935340469	30.745226570530065	60.38779584142276	53.68094028261222	85.99234101170671	145.79078927336914	9.381722971426381	7.772831249189308	-96.4726847291949	-81.47144838710862	-85.77692502205213	-62.34826587308652	2.512353305694711	86.91039724120817	0.8243109579509378	75.30074911650615	-32.5390110832126	-39.412967926280395	53.43434944787309	106.37556016903538
0.01694915254237288	15.895437034556775	-0.7128656955671808	10.741831048679689	19.502751470260247	7.3334024688889805	30.719149121963465	60.696145000885416	53.70943775415317	85.09624519824186	145.7621331220726	9.379087334807142	7.82181484035127	-96.53538757952894	-81.54368045139667	-85.75376489756452	-62.36473519555797	2.340573460702937	86.9256854264894	0.9368640813571867	75.22717622593998	-31.810388717764457	-39.380912820872574	53.06274974570488	106.36895593882961
0.03389830508474576	16.52590339297507	-0.26136156447298864	12.09333039590319	19.89994934720327	7.564985866666999	30.477573948074582	61.77797077016965	53.99951226991173	80.30591790341819	145.2818592546404	9.317028894853626	7.93070887800443	-97.30536948717672	-81.99032784408269	-85.357829463512	-62.46196231197128	1.3482972801967996	87.01215334769527	1.5461484443873914	74.94513810385705	-30.7505965846721	-38.94095679764855	49.75000010231542	106.32957723065401
0.05084745762711865	16.734414743068793	0.3595070692751432	14.189786432233289	20.215093572507566	8.549486978128076	30.58552320510968	62.34260487676757	55.12062571674156	79.53172514853333	143.71866750798918	8.346496168267171	8.139122240534032	-98.63307082522077	-82.72607545503841	-84.70047795691858	-62.561178916855454	1.8955022092837295	86.8434096710545	1.7349535932897808	75.00167526181437	-29.905857750218733	-38.173317682931604	49.13007256858832	106.07830184763925
0.06779661016949153	16.99277154578451	0.607464531796271	14.692962781570966	20.584803452034755	9.028937707240837	30.668576963735312	61.2837507795864	56.22833783901718	79.84762124727075	144.9293890594939	7.792316432524702	8.453742693544728	-99.45929217853615	-83.50836816340055	-84.72290625929594	-62.855405111167485	2.3675337763121993	86.44435690308033	1.4516204291617862	75.0512471147173	-27.2744573653184	-37.57549384753033	50.49437110698475	108.10773736538175
0.0847457627118644	16.56067888531356	0.6921507864074453	17.375850228579555	21.063777741286458	9.185641501943518	30.26344388883885	59.12827669411769	55.160232608531544	83.39226984723865	142.9293975282955	5.342935024967485	8.575306005473657	-101.33896902849587	-84.16702538892528	-83.90601122290136	-63.0428130353865	2.4923150421651683	86.84671373604728	2.911143178490021	74.99369912061208	-32.16049043298257	-38.08434761084345	51.304145365403826	104.78715749907431
0.1016949152542373	16.489619889249457	0.7672446588591237	23.1300127746024	19.578031193078647	8.674649343670922	26.09289799149048	58.77744896625734	55.556317398350814	89.5784643449563	139.2719191618497	3.485549264721166	8.61392610764284	-106.21365089064342	-84.32269238735908	-83.12915565382357	-65.4133974906277	3.6808852280757742	88.18423521752499	4.3120029099982675	74.71028018113182	-32.92517618910472	-36.019484709012026	56.37044803449936	103.15808816219301
0.11864406779661017	16.345419399535494	1.0839361977212032	25.48080484640087	18.301571804069074	8.796753141362341	24.744664302160125	60.11133746887802	56.029299269531975	88.15276970569899	136.72755709067027	-1.0594054787834226	8.597018319301059	-107.93059723977187	-84.4240576223131	-82.31064977215811	-66.42769690254882	3.959600110329733	88.82939769363374	4.467582981690638	75.04557981817725	-32.32269937119594	-34.95942216369372	58.40954776688782	101.11370128762847
0.13559322033898305	13.431925366399055	2.9520589612834565	29.25188330906154	17.64106135450172	11.373568770835977	24.079852917051234	63.58409738086511	57.689597806537876	89.02818516455494	139.58161907043603	-6.0081968575067455	8.525103289400395	-109.68330049120529	-84.79430781688826	-79.8988254726815	-67.51137587491002	3.9682122427512834	88.70766330638877	4.378640912727867	75.69612793918387	-35.09372628510509	-33.60014793159408	62.58690363415953	99.7976665017657
0.15254237288135594	7.196539978624251	2.9308547298709278	33.02862806978533	17.249064646258844	11.711098409327317	22.487146561065497	52.23707506782462	58.206372051420225	91.29534667427225	131.05777944559338	-14.935451893720415	8.364352432855057	-112.67326968477316	-85.1323715861947	-78.7905127234615	-68.26573810270733	4.035190533576042	89.43851825238451	4.4086973876901725	75.30835370848	-39.24882729363508	-32.31369816439636	62.125851661856515	98.86721410205716
0.1694915254237288	4.592127219197736	3.4148327720374807	36.64697078468848	17.23076159866055	12.600323571939107	21.2236304904006	54.87733054291954	60.280826809140756	94.90702136111977	129.29674102461942	-19.45495810677441	8.094237306598181	-113.93667047640008	-85.68177190579789	-77.17086384844178	-68.62664133514163	3.9748601363608604	90.1355476807404	4.3335178666231	75.84038676579478	-35.88795793343406	-29.434216375427173	63.076511338401154	99.94540353230101
0.1864406779661017	-7.512043830201282	3.5824992987727433	40.14991638559567	17.240758906014236	14.312194140276212	20.782684702498802	56.03425741188718	60.99690812815319	95.90003856202742	128.19153336224628	-34.42798414077352	7.980966248975499	-115.22083824211745	-85.75693131475255	-74.92541640201314	-68.72940599390783	3.8805342889858263	90.63302760709863	4.2737199101471255	76.11394511002517	-34.057773361245864	-28.29973408389849	63.87470013182911	100.16873571390927
0.2033898305084746	-16.104274765494623	4.020643970166066	45.416606339159316	16.83404719606833	16.895169817755352	20.353746768684722	56.455328309148385	62.45721392958338	94.82827366042604	128.29133347777974	-42.504142057997974	7.982502013200131	-117.79565117415757	-85.68478650885392	-72.52006316783843	-69.0290867521915	3.7778850192904967	90.72692767116446	4.080171015244966	79.4074891693014	-30.175860413873945	-26.975689025724773	64.29507063724168	100.79494064251278
0.22033898305084745	-18.818028888794185	4.290161924582152	47.211441840362376	16.927578615147894	15.670050275881797	17.751616388145273	56.96013038059436	63.918116939240186	95.09488425110922	123.25322095485284	-47.28764007193746	8.10077289650875	-118.94193459946864	-86.41505759388224	-71.77397956698226	-69.56131390420131	3.674947915512988	92.53646777549191	4.006922891497901	80.04954688886427	-29.673420989269385	-23.395076033572586	65.11129727675588	100.39927134631932
0.23728813559322035	-22.159548376850164	4.685013489493413	49.904512153341145	16.73646843860262	16.440909160209753	17.338882036387616	57.45345807017435	65.76235860698233	96.5563971267299	122.39015383769835	-52.519954846682744	8.286248622314941	-120.46015539643582	-86.56318393019303	-70.65301467988024	-69.84493075602616	3.5754957064913477	92.99565283081752	3.927516544264057	81.01853115368932	-29.396138603681987	-21.26480354207664	67.22540649090037	101.15616387572395
0.2542372881355932	-24.077209674543774	5.973594016537971	55.62584534650345	16.647532013033516	17.77494134223534	17.477546021160876	57.36459081701426	66.3873194888275	95.93789802873876	121.94166061174141	-57.70963826295636	8.941415136273317	-123.65503569195299	-86.59299030320359	-67.9854423939742	-69.83010265763116	3.4831512980534853	94.0505987055818	3.876778602050594	80.96395361653333	-29.50209794599785	-19.407415934042078	66.3997574401439	101.44356790985287
0.2711864406779661	-27.469281830944357	6.886586478213947	49.78940430125868	17.13355254149995	14.490550644249364	17.258623295808583	59.3567363208984	66.58843165264736	101.141033664553	121.43876483017652	-60.99040473661225	10.738092696519724	-123.5807379236028	-86.59005064428173	-73.28143762306057	-69.056697104316	3.4018495472811114	93.79890380843575	3.5684949556902206	82.51429480018281	-29.162055074606503	-19.836766538570473	74.40625120777494	101.53472155744375
0.288135593220339	-26.541624788975646	6.4734759513610385	63.7417157634674	20.278866388465453	18.39142324927475	17.32091565862578	32.028712430206994	70.10692817571912	108.84919956745672	117.72246686480193	-66.49765179133527	10.130238008750187	-129.78428116844776	-86.52977819860976	-66.63102768428053	-67.89723327951157	3.295820404795003	94.77682559070897	1.099993372770605	80.21080308819876	-52.85049327853096	-15.020959316190385	64.37682398638522	101.65472110928519
0.3050847457627119	-26.324326592215133	5.809253044593867	65.64020076713412	19.54132057821799	20.23544719929209	17.65795131408568	27.174015689865698	71.23283355124947	103.602781244707	114.44632312710708	-66.05536242736687	9.799029995395573	-129.6266572146387	-86.11324510519304	-64.32770095735624	-67.18842570432693	3.270988569755934	95.2759707003109	2.3520841783753763	80.28698610244365	-57.6374817351589	-13.434387889304421	113.9305330894421	101.35660437357727
0.3220338983050847	-23.494927374232486	5.281521789446899	68.11743502875211	19.539798353022878	23.675795846185654	17.7557643360993	44.39835896933639	72.45500365323039	136.53280570529702	110.83081568569702	-63.040503142823454	9.129815934567773	-129.04781880783915	-86.43387198259978	-60.88210129483559	-67.00489327719443	5.4873414421480495	95.33644929031826	7.5209491111872975	80.92594408183027	-45.778899002293024	-12.213771690314651	100.09092828824048	101.2573831019817
0.3389830508474576	-10.063304202836605	4.8008935295813036	66.90186893872527	19.100256353264093	27.419456409376185	17.729113654193636	46.038470171433495	72.32510008605199	84.92689492131771	115.6424678285634	-47.33458916412229	7.89180607897348	-124.74194683418501	-86.79019482383727	-57.75736354454182	-66.9687992223486	8.818083045045128	95.35282922550265	10.664202567666656	85.0263166896254	-37.76507035284118	-12.94985623789966	46.33529851229365	101.18870361305433
0.3559322033898305	14.120910839403006	5.1735436129622165	68.01242580761046	20.555466603564245	30.638201670656876	17.80626782107119	40.74142065878964	74.61330200336162	87.92134385532599	111.40463243493306	-16.46231214735881	7.413484808775691	-122.03533224623767	-87.74316850226828	-54.006495317941095	-66.96385384086274	11.4102281659423	95.36020280787109	7.9971294602826895	82.78318957720496	-40.27041499226507	-10.08699273667596	43.41479519126395	101.15011515143355
0.3728813559322034	-4.779699670305207	4.927704646915871	71.19376550293846	20.686466069144217	38.06877333699686	17.153457784872888	50.842661701854304	76.32698045937715	92.75608674301267	109.30222355819825	-6.082209496017813	6.491879551726819	-119.6606503286273	-88.22984231664147	-46.51345294742546	-67.11270726193483	13.686427891349297	95.39166555538036	4.814379592856128	84.03285940733295	-32.863956618027515	-8.383857805344181	59.3107558878133	101.05856745578392
0.3898305084745763	-5.159350154100653	5.134039420956235	63.39513136536442	21.818623847136607	40.84994278734557	17.37589003687306	49.898702097590025	78.87398995145216	85.26795719831871	107.00539783049382	-18.908318488977418	6.009075966318834	-107.56699842089559	-89.2225404016632	-43.75023600710561	-67.04499521033931	13.199762210818566	95.52503621508545	20.12259775383088	83.12834970056737	-34.47278697592863	-5.730722461407747	64.82936604555263	101.08763429620068
0.4067796610169492	-12.297931517913874	6.492040643950066	61.06557510781548	20.129993412866636	43.0810149121339	16.994053715799577	45.50137735316007	80.20619676687929	66.91493334119228	107.4743150176394	-21.493231202615018	7.061927601668848	-101.17048112959735	-88.28037341085795	-40.17757556048271	-66.94797378844738	14.191256096871786	96.58586793066772	13.847448378336061	81.90357629837071	-35.81596812554979	-3.192894359900788	65.77295927347573	101.16834942838939
0.423728813559322	-18.321391761467442	8.22670597742883	64.14444724488285	24.447074116110226	46.66805322364183	16.694541469897192	65.169416367774	81.8131696444628	80.76357309303877	102.75709608282101	-27.169780223686185	7.790692734925285	-100.69020731019621	-91.25216133665194	-36.43400205646466	-66.75138843772964	17.365718530880166	96.87505253340693	15.639757037360397	80.1874435333204	-17.76415486614704	-1.2966105346043344	66.51558198722158	101.2609432396901
0.4406779661016949	-13.966806750081355	9.39636906043425	62.27314056377364	25.237841105578298	50.57133878891122	16.573234409816543	64.3639653166154	82.25290464031244	84.9804600262918	103.04997580546727	-19.0331401834721	7.6660066262461015	-94.64231027674205	-91.62603926636031	-32.47106756189481	-66.78426746484256	17.187559053651004	97.16156825836984	18.54337989455448	77.82777283097158	-18.603960301539296	-0.3802353996100116	71.36526746484193	101.40420061803822
0.4576271186440678	-13.329678962032272	9.707803366278167	61.625305662305614	23.997832408066063	52.30919747242733	13.528107537967998	65.23993716034832	80.90770942415475	94.93966034150783	100.18403749361126	-13.985847331562312	7.702885727713044	-90.16646215402253	-91.33181554164106	-28.683149605077187	-67.56070491831822	17.467195311734347	98.90449198017187	21.776320430650067	76.75710798578278	-15.702827623227297	-0.2181485225241131	80.0203052729437	100.76921315772942
0.4745762711864407	-10.029849003883463	10.255240650520658	63.81389273698679	23.627858486400633	57.94805472654995	11.741994057139406	61.77610314910826	82.20701184525814	101.17009791982554	100.03459374569186	-5.8091495298422595	8.271548635683503	-86.53764009705002	-92.079254986234	-22.62664782713126	-67.98270976538107	24.43681278696887	99.63458113110453	19.417164836126624	75.74546909328441	-18.950682602899764	1.8565921693079126	81.44879305156837	101.3487583462463
0.4915254237288136	-9.744340049936545	8.268822514047425	61.11932297647136	24.423990197225322	57.87653279874011	10.986691645641688	72.57179474944509	81.7454406226002	79.2298067970467	99.4740928741641	-1.0986031585917653	3.7255396017431117	-81.45184739367464	-92.37706644417968	-20.86433609136962	-67.65485989349264	26.362682995203453	101.2319640850432	21.171360993662805	73.59812699036347	-5.752366519842972	2.9575067129254164	72.02676272010213	102.00190440881865
0.5084745762711864	-9.907959071533542	6.89180880212849	62.967403415668976	25.71449148989031	63.79794505201691	10.898415505670723	76.72057743219332	81.72930109420338	70.63002050482983	97.67589831965104	2.4818368519944776	3.0970806285433907	-77.28831759189013	-93.41902231178422	-14.334448600711259	-67.25639068006346	28.656410237622296	101.702434289311	18.32484311391647	73.3178378268475	-1.072147382703224	3.1701636756430354	70.65370452816018	101.91427848670486
0.5254237288135594	-9.848705721173713	6.546843506856171	65.29785765000494	27.28080078049062	70.68486558374026	11.928535352905028	71.92635553981351	84.3116010301992	71.49448018601585	95.58526031018225	4.024861498131181	3.464573793742997	-73.17138283568887	-93.8123117638192	-7.861068868677465	-66.78627261146336	31.584245110022977	101.54469406894695	18.975535052541144	74.02035809435739	-6.870659418688926	3.90527206142727	67.799325252554	102.20191582652076
0.5423728813559322	-10.86901504792927	6.341928821519024	70.83429451049872	28.07817371771485	78.37670023032307	11.698981245137265	66.23290443776183	83.3048081819945	73.13861201142946	98.34086791779342	7.673568979964288	5.539034279649853	-70.67216212613417	-94.60112668875347	0.19159092488918272	-66.52897426257793	30.547951552564555	101.79282993472309	21.174509661231497	74.26735646918038	-12.276976583117388	4.8435541048046415	68.89051100192285	102.55482239275425
0.559322033898305	-7.939193714507743	6.313247131423201	75.22744376126366	29.63218705825139	85.5514533795534	12.236270223438662	67.85904497281513	84.94815929476094	73.25155558483033	97.49320220090036	13.968001604015832	0.03892093898169424	-67.88031682041567	-95.44406212101823	7.290822419913209	-66.01890438353867	32.90749455981818	101.88649977398842	19.25230043596133	74.19957001204075	-10.328153462988016	6.897248117906916	63.91526096427949	102.35184160230122
0.576271186440678	2.6949939393689464	6.285614021115696	79.88200594145808	30.595880518866196	91.23612586790944	12.090417977132653	67.60260728038944	86.40067410188752	72.98707315350991	94.1309406784419	27.33417835339411	-0.1663499803745081	-66.00763240393745	-96.05566488886417	13.68529285269711	-65.63810014640897	35.02727663590765	102.39520196016237	18.187523374475163	72.55159804656712	-9.912431349059077	8.74455568432132	62.592672430064724	102.5245949050119
0.5932203389830508	4.314980696539753	6.1184093190766315	85.18729305946178	31.074485545817844	97.97181053277072	11.806711761573455	73.30885724392405	87.01871983849037	63.69913303107656	92.43844783211192	29.558135076211556	-0.7471437232338767	-64.14577245895148	-96.87354854046731	20.382077791635073	-65.68996189306795	37.937323693979955	102.50436500560049	17.3262768688486	71.34626683706136	-3.960426487229488	9.318318941701513	59.65952470812	102.32293318718683
0.6101694915254238	0.013254209821653387	6.829558005391311	91.57723015612706	30.430087200569695	106.60134081853522	9.817888968456032	76.94366862620105	86.90874454704905	58.883702892381066	93.88727661188855	27.423164566004793	-0.7897325991648936	-61.364401458299355	-97.79517850277352	29.363049921017094	-66.46299447710739	43.96080810033073	102.78674057043612	15.765028455149544	70.66045308683357	-0.5339930959081718	8.8357708451316	59.36810146556054	102.44359618127245
0.6271186440677966	0.7992070146091359	7.13265015569572	95.5645417585331	31.80064888226157	112.14904446549795	10.20392525878838	77.54570592536427	88.71299564952449	60.07194864845276	92.09849118369412	30.546172090635036	-0.8904326609852431	-60.16495439637548	-98.4058025486098	35.312535919868566	-66.54287118932356	44.077409203224484	103.00345632110286	0.5013951280083626	69.54999866536262	-0.7354064412737618	11.952261876814234	60.174668264668696	103.22244365475221
0.6440677966101694	-3.409961002450119	7.900649665019762	102.04712104175405	32.37334802560236	121.3527308222371	10.689288982437251	84.18855933757281	90.58334184973333	55.8894865209308	90.68245760157208	26.771841484951203	-0.5231197151297584	-58.965795261837044	-99.14614996613695	43.41746409983539	-66.75938778978887	48.50087793276988	102.52778571195714	-5.250055805105007	70.09279430340186	-0.7378781935238186	13.003192712510872	60.74286747632447	102.1498888050227
0.6610169491525424	-9.086699464908332	11.66751661356377	105.87546366331824	32.88853174322292	127.43600710593482	10.15653614682176	80.25402438358594	90.3694253319453	58.373182915495626	88.0538389540123	23.405734886646723	0.9689177849174335	-57.20464918734071	-100.2004399143834	50.772587924449745	-67.16465463318298	52.39909298611921	102.82907546820503	0.24254384224478365	71.51589874930728	-0.7043016464454537	13.121230636105368	60.24875570434526	101.28229885693894
0.6779661016949152	-12.320897395355775	15.056415262253244	112.20249594248064	32.41401769187894	130.64316072140522	7.925321739307464	82.23967128239528	89.38679656205653	48.633884043420096	87.83611606438333	20.801799175042134	1.297369390473805	-57.58948024407597	-100.96910545530366	54.22281827850328	-68.47336976733398	57.07575908654167	103.3992052452491	2.734518592975861	69.4773843958858	-2.819614285352812	12.756110262002725	58.23427958136395	101.05903103172788
0.6949152542372882	-10.993518561649996	14.420513884406091	117.17211973418142	34.124103427800286	134.69715000889093	7.975501657288841	80.56140466805557	89.51190213601727	52.31386814275642	87.65105099257869	21.983018877003683	1.3703500966769901	-57.450530396549425	-102.42423734086823	58.55900814971543	-68.34683516487559	58.757378994191654	103.85061582027409	2.2048114100285607	71.65307486553355	-4.791376803801119	13.31359465053043	62.435577353484206	101.3320249368406
0.711864406779661	-7.896597784646946	14.97004277754988	121.58100448300226	34.27677522231464	139.5570359074602	6.979037485142843	81.6759062548299	89.54735070855814	51.0473061260693	86.94771063727782	24.712345551087562	1.3695683871884574	-57.99810051694358	-103.15598007325652	63.43378253677857	-68.79731589223944	60.472506780393786	104.18301819824514	-1.294299837728837	72.17202646962194	-0.22877698904192822	13.463662951975497	57.92175137145924	101.80146375485181
0.7288135593220338	-6.2347925326322	16.41278153721189	124.95283439828981	35.075724440171626	142.1816719957638	6.11809674034266	79.09331815486044	89.73154506796001	51.46715018844266	87.92933311406402	25.665669672065807	1.2703839474651888	-58.16837045586702	-103.62176233150466	66.72922505055263	-68.76424991424027	60.65424252908625	105.00046287380846	-1.6440118669674684	72.51285740843892	3.783045787731951	14.294192132426364	55.710085235222316	102.08076835755317
0.7457627118644068	-3.7145841605666186	17.550643174535153	130.4719277678468	35.269656352237334	144.84963468218115	4.3320039941402815	78.2016407153649	89.16191333780145	56.07726827764029	87.14467056295064	26.854997657509436	1.1227073101048761	-59.79147887585293	-103.57975176328698	70.65529108191731	-68.92865933779505	61.72582614856741	105.70931712792155	-1.5053658280823026	72.71069172621698	3.6516798120237333	14.712800264591177	57.89426967782208	102.07557119543205
0.7627118644067796	-2.7957303248672223	15.531725653917615	130.76073003972465	35.50439888047333	144.54558231747328	4.882641215729991	78.46660199056171	88.8949806032449	54.36671546103821	88.91315809875854	27.06843448488126	0.629281639296102	-60.507597082659345	-104.2697283072363	70.21862229767943	-68.90072153442004	64.12081044969223	105.82172474116332	-1.4851160259930039	73.33835124833863	3.811053313982465	13.477960998004246	57.98365728336951	102.46394383429849
0.7796610169491526	-3.8894901541800593	16.56941562943203	132.74740851134055	35.872107264306116	145.55285858497433	4.671214884721337	78.69481966264709	88.82118362074033	54.7051874884704	89.1897207500276	25.428099221226844	1.5877939577058822	-61.050448314339874	-104.89139923007315	71.81088847902032	-69.01359290222912	66.15745340419612	106.05233060255615	-2.1146802833794487	73.21460070506068	4.336908833104177	14.09495331951789	57.880784766177555	103.73103262584793
0.7966101694915254	-5.748908393404345	17.321989149890516	132.28036667548966	35.73020292630483	143.3575911369677	4.58681561862613	79.0792429814478	88.53340047718757	55.805007189464106	89.65291359418384	21.667969373845064	2.286998382944441	-63.066087845446916	-104.67315177842362	69.10362924197155	-69.03643935909763	65.44184588275492	105.8316460324062	-1.7996236393512488	73.7051211201156	3.790168947043073	14.158205529796234	56.47718314285055	103.8734537468531
0.8135593220338984	-6.833786940455955	16.859332630937732	132.67023165770036	35.549949491310606	141.02984927659696	3.8833441247172362	79.78188269412999	88.4253409211466	64.65658274854711	90.11557099640599	19.03538775511008	2.5388852383202334	-65.23756133357367	-103.98620719659189	66.56996956518492	-69.02493121163303	65.3753785600476	105.84184925041133	-3.035134935321909	74.14778726269101	5.365145938259995	13.98865099300711	55.73663950160463	104.22229918519982
0.8305084745762712	-7.023204298049714	17.150628547842988	129.83580366633802	35.80203664195526	138.14219810421417	4.5807888892196456	81.65131899894169	87.82314848193433	45.58564354281929	88.76347331478486	17.88237751043927	2.6291412115684856	-65.29281386788135	-104.35880587055752	64.56116254669169	-68.97868594163855	64.70275817669281	106.288719311907	-4.07921242344831	74.27863334729832	8.072364382292553	13.91021249084622	53.305608694581366	103.3606875984876
0.847457627118644	-6.6589186578374715	16.545205812924493	128.7286024832624	34.46803871693865	135.71497372849257	4.126104515892775	83.31839979673394	87.69639140556444	45.322662627797115	89.61719342238341	17.40221804383643	2.4132244101780778	-66.0200449989507	-103.83765154589076	61.98596444367178	-69.36437469824234	65.6485019703192	106.26655294651057	-6.2243088382702565	74.32157851184223	9.61400802025846	13.923103702717931	54.630402163350155	103.53492820371638
0.864406779661017	-7.02401759507556	16.267345919709314	126.06655095479627	34.30959472219498	131.7990455818549	4.609285951611414	84.81283430909588	86.38076311736603	40.404481251828834	90.04975197010033	14.877218586159294	1.787976742389544	-67.8019046398039	-103.46596817981148	57.94387507336887	-69.19012555262115	63.90917922904508	106.21487430491325	-6.144937933346863	74.35429023743686	10.811944051936393	12.423766348122303	51.55329497121485	102.64338944655357
0.8813559322033898	-8.350243647300925	19.749931415977073	125.56040010423862	33.983400122272364	129.2148165246052	5.01647692633027	84.04437731527467	84.33519347466444	40.03462378780724	89.29234146636836	10.985083720559679	1.2971544258723169	-70.10195275704584	-102.67423362841214	55.47599425114254	-68.97552758483468	60.28764924496892	106.22627726944718	-3.64733890780668	74.45694265290045	6.423789999029183	11.401992345397755	50.35190503030808	99.85991029782092
0.8983050847457628	-9.049156338646165	17.10073725553494	119.02452935120307	33.848505525556185	123.17549719636321	5.196079683605669	84.05431079367402	83.67186485700346	38.89499874520517	90.39393651573303	10.720719219920978	0.5563591760305515	-71.40917070177754	-102.52173184239281	51.15956357638532	-68.86176893818195	57.325781682931584	106.06930039847579	-9.420959000386947	74.94265766604352	9.680339756172298	10.08687444167519	48.16042583936755	100.49084089030583
0.9152542372881356	-6.095461341288333	11.749597552370096	117.30474122799252	33.72522183461694	117.90405665724762	5.3408208900717735	85.38006727942467	82.63235423057134	34.168138450488755	91.73576435754433	11.98665775266132	-0.42358050572850825	-72.70452262841194	-102.27206750204883	44.23740424663289	-68.74791068956246	52.35369517271451	106.0036668330143	-8.606291916327084	74.76778076403097	11.451347410748042	8.843939654460645	45.77073793935386	100.83740939883648
0.9322033898305084	-5.542185834762767	11.346381584093958	111.33661314393841	33.403427354673326	112.1873877738978	5.339822144765963	86.9968493978986	82.0364396919839	32.464208699568054	94.58671724339428	11.092773905718147	-0.6258761781603885	-73.26138217545656	-102.09460866752237	37.66340568643902	-68.70186563512084	50.109026420401406	105.63971019136851	-4.636156639662885	75.59880826082514	12.73095693268003	7.605138057255921	45.12275152278242	101.51458416364237
0.9491525423728814	-3.2096166085077904	11.124382834783964	110.26001472561101	31.231446241566495	112.19885851574463	5.299312670208893	83.27463119856608	81.0170783993273	38.2877703903437	95.80760703616716	12.128007562151883	-0.07738018271516722	-73.69707284577214	-101.12904857393733	36.8719705051288	-68.67256775540206	48.8477982377525	105.41275891123028	0.37587379036135093	76.8373096431558	12.176521522576074	5.685644798975005	45.23996069394334	101.51654609799778
0.9661016949152542	-1.3010000617726674	10.622136357885058	101.67145474787284	31.636264574447583	100.74102832106828	5.315001695781341	84.77961248932064	80.3151206596036	32.11784141925539	96.12447519009281	13.598883801808334	0.10347777830829408	-74.81711714961978	-100.61058808797752	26.691771676510772	-68.66709633691943	44.38644730839643	105.6644739442685	-1.4260559083021365	76.20268951936418	11.371625803457368	4.407304931488397	43.262484943005475	101.8671808690951
0.9830508474576272	-0.08461778410305947	10.406012220559788	95.03549126243207	31.346217271857572	95.24735464795235	5.254721103442171	80.4727608782603	77.90422492582022	39.28440169252094	97.41258818748099	14.554159261641683	0.2610178296706076	-74.96945636127676	-100.02306475313212	20.734765096735035	-68.72253066098004	42.479279448222094	105.55257653898678	0.9365842846935468	76.67324973009953	8.033438506861199	3.2276099558604487	44.69547654246104	101.24179003190237
1.0	0.6255514530231863	10.659372109031853	90.32570105165115	30.46065552681948	89.2168000010454	5.165159240133606	77.90352658256396	76.62877899577802	44.72883937570659	96.61172006955172	15.144699816857464	0.7352881077704154	-75.65270768139784	-99.7444862994106	14.716042840304624	-69.30697818986265	40.783962827550084	105.39840646692032	0.2243477675216985	76.83700278894743	3.622584115328076	2.1004581175820034	50.522449673747346	98.75530037596683
1.0169491525423728	-4.649739365460133	9.81779313887706	90.45149045896258	27.81279551277383	90.58345359037104	4.982149005914036	79.63081666146691	76.13514931636614	57.82757802738692	100.48875083422797	13.028893898850775	1.1252205724880815	-75.93936057094902	-98.6769879360994	14.625577371003903	-70.68493886325187	40.51147786380566	104.60314670159154	-0.5373571621397355	77.1008462843314	4.0437102472647535	0.26272798613336334	61.734639124100816	100.0299628528785
1.0338983050847457	-5.168572516476129	9.567626584911253	81.51176878228131	27.356396736544866	80.45557192229326	4.547380817559025	79.91641454925929	75.77123764509237	44.120918242987685	98.04386822862028	9.213212958696882	1.3172521630648886	-76.23098605577285	-98.30318293689014	5.528750154400965	-71.03604557222971	38.31944942581656	104.7920617908864	-1.955521459797768	77.27018297437732	0.4047728760262812	0.7707243243565669	50.988299548568584	98.50038403888553
1.0508474576271187	-5.991407811837069	9.017774510425532	77.7139264819904	26.467913770341813	75.99339233714414	4.5411175488820605	72.17157671367626	73.27092349203403	58.46246499137662	101.64529273828009	7.114017376520548	1.0660310778612283	-77.09893074720287	-98.05303902885552	0.5140663135126848	-71.50079825375889	38.59096463841983	104.5809987971479	2.0867937012719606	77.7535983514022	-3.8199153948510967	-2.192838855450483	55.0747782421845	99.07450677497674
1.0677966101694916	-9.477470838072577	9.440063248751333	71.04325163551339	25.478312850115763	69.80521430815875	3.997712362604031	69.51539392107881	71.0751291985255	67.446212787036	103.48522703297765	2.5962840697689678	1.3268429732542897	-77.333470258838	-97.58203276503984	-6.093050643399626	-72.12839724504394	37.86897035114877	104.25026706716456	5.6401831098883015	77.76066042814637	-6.528560385508464	-4.797638058022151	60.6337413077414	98.32577824257221
1.0847457627118644	-7.025147527990665	9.529212280467675	72.18632822287321	23.806985543589427	69.70079207230597	2.937181488919416	74.5406336412247	69.58829429899649	63.74579815945617	107.50734169696034	2.86462077863733	1.5806430915313197	-78.64570781137219	-97.14750196639638	-6.5596687177098785	-73.20455843127766	37.924642200162594	103.94660021752948	7.4609690589692015	78.2543775720036	-1.1926564198412617	-6.672805180921286	62.40692953398578	100.07488162411008
1.1016949152542372	-6.997730450508458	9.602239380225177	62.524792103637736	25.08976127882943	58.36932209062397	3.0345523302821125	71.93105732422	67.25358761988964	73.04418775650718	107.17800360693074	3.4814217588124006	2.235019268823569	-79.25094281734036	-97.11964006492356	-16.863260336644252	-72.34596870482837	32.050409807466444	104.37357220623413	9.043292921656814	78.53666823027073	-3.452583878036081	-8.069353462596773	61.31898126943441	99.78869133531315
1.11864406779661	-6.922782863890303	8.596365516981464	57.907430320450736	25.204150880815693	53.4094908899728	2.9937868795270313	71.61047888294965	67.26005289247792	64.58569577405697	106.48786801444703	3.425678456683761	1.8057303906460378	-79.29392827859417	-96.80790226014294	-21.413869291232512	-71.96467132424075	34.01052085302309	104.60001719299152	9.297116217399264	79.19027338457109	-3.253899451207416	-7.581481340623475	60.58930791174376	98.55032651515118
1.1355932203389831	-6.743439072288559	7.635697064499132	55.659326950934705	24.746831344360757	51.888401410629754	2.675489484952273	68.69830118291944	64.41158744279724	69.28093771167306	108.89954094399391	2.5847446746922587	1.7466894863579725	-79.3983800193242	-96.12310540994163	-23.687236896344046	-71.95781548207744	31.530831250639828	104.3851136668302	9.050636684732492	80.19288790863162	-6.8968958549333825	-11.171548312400876	62.26750754577675	96.81475216504332
1.152542372881356	-5.845904837869709	9.178503225955287	51.5849486669581	24.545995451321858	47.727333964838365	3.745697008906294	67.27357426278246	63.296207552989266	65.81491533983076	110.34448490841916	3.81545546531847	2.3970056554905006	-80.96684991104603	-96.39092590564199	-29.63672883837351	-71.89382510554121	29.638479759865472	103.09912338935476	8.625518023844581	81.00936745446852	-10.027594279636705	-14.05093639573127	59.215301884777915	96.41307919218218
1.1694915254237288	-5.3992407182150215	9.569448782454366	47.63457788157786	25.44612302629359	43.742589891993454	5.238147100488067	62.4658885845165	61.52760203412431	80.85059310037352	110.49292135930827	3.891009623950073	2.7377840295052946	-80.82142029058993	-96.83630640952224	-33.25782811409942	-71.58238099705343	26.96760182394268	102.95078238036115	8.507711964480372	80.65527086582195	-14.720595478088079	-15.595383930858944	64.96197509422247	95.03916952525073
1.1864406779661016	-4.655083017655201	9.48646395118911	43.190957033776996	24.88597678600307	39.16021986245613	5.314228785125515	62.680625420812675	59.98201876348803	86.9944632729916	110.68947838604124	4.780582161109579	3.32594634052705	-80.73874998088463	-96.64874264331503	-37.65987112463115	-71.68123283663773	21.594588850540017	102.90405275615913	8.429376310244681	81.27516160481677	-14.360932586420422	-17.115683430725255	69.51780356676761	93.55255144293174
1.2033898305084745	-4.9320279456205425	10.471360557664568	38.0075796867571	25.01186000090769	33.6617392821016	5.4328535125856705	58.26567403374327	57.59516003857427	93.1876788820443	111.76484216298486	4.953614918947286	5.683078333466817	-80.62211842026143	-96.8562153453989	-42.69911350100149	-71.65065925248122	21.472859084792837	102.85907385976998	8.35373375646007	81.32168065092445	-18.947109508826724	-19.541721662445394	74.66419128841771	92.20204149750056
1.2203389830508475	-7.530077182877694	13.797830801247965	34.96606472626341	23.538070552429893	30.4727435491495	5.511084260359172	60.99539440048473	57.60953168335924	85.10480413333113	113.30367660533862	4.9924288662299166	7.365244457305568	-79.27741640625658	-96.82020972833848	-44.42616299223046	-71.62131605304481	28.04443228404572	102.54629560605846	8.251869687823588	80.96953514874797	-16.429583254427857	-19.894798737770678	67.71242635670122	93.26813647951128
1.2372881355932204	-9.48949271163536	13.581165878693863	24.829986660575543	25.35324202272689	26.41783669151246	6.170494128127864	55.90109191128217	53.079247279435194	85.7230962412188	114.46655728799782	5.002774479561829	5.575171337193825	-78.01293692476877	-97.42883864910537	-54.886377166400166	-71.51076842633363	20.79265511154971	102.39359821053216	7.897777545346312	80.4317576243299	-21.819737211975667	-24.593864163426414	63.30683805696265	90.1675561462965
1.2542372881355932	-12.147650349653247	13.567586436905124	14.15740550392262	25.601262386565235	20.489273034989772	5.650503818180747	55.6224786862505	50.56691203065681	88.33837993945876	113.89685684951816	5.01500392238583	5.269873899010638	-73.26811090445415	-97.63431514572505	-57.03353776317977	-71.72547070996156	15.334950842833901	102.6047925362875	7.5088632107369	80.23237825291098	-21.612436822005876	-26.67781029835918	65.57507491886832	87.35030470533415
1.271186440677966	-14.118677121627313	13.95801790623631	10.211250543020672	26.23289849908771	17.65170311052523	6.180828865234632	53.413512749907476	48.25913660331227	91.12936820933587	113.56082834049135	5.127043140226681	5.195482138545592	-70.71631249524467	-97.90979109148232	-60.14695270725228	-71.80607860527637	11.484074653614051	102.31884035511536	7.1323605469178295	79.86419030137436	-24.299284393884292	-29.46667557223039	66.43585416473505	83.88212804727613
1.2881355932203389	-13.016320427346297	13.160065727886305	8.191061413218401	23.813880906542796	17.715222833123587	5.50441354789236	52.972691631629374	48.095980859228106	91.38999060356434	118.74401829798985	6.4967565189588345	5.158394901669504	-69.56988693624928	-97.70355872973644	-61.24008586003724	-73.6500436278217	19.676168990732585	101.30371065703848	6.799314845307126	80.45074708752607	-25.76805490217099	-30.75932701699146	62.11741838749443	87.88031137615526
1.305084745762712	-12.243256737477047	12.958101019077292	5.958411271633286	24.18268595137579	18.390464044198815	6.377731912641742	44.48324356592007	44.50982770373619	92.95242524212851	116.92059076738185	9.871721529750257	5.130116771923316	-67.60134520616576	-97.65090956838627	-61.50310295396538	-73.29238158129347	23.380662945464493	100.28445919390124	6.5369316148763135	79.71050529048371	-35.43580381619084	-35.3564324287442	57.43581990557886	81.59238321672153
1.3220338983050848	-11.043009926274518	12.955804673746233	5.637911473562767	24.445013573405884	19.671103723439714	7.050920263638425	42.571046345895475	41.080834623110505	100.06053604563876	119.62047565899243	12.6381903056099	5.104372537556893	-66.45140593460694	-97.70562948308195	-60.73286311341465	-73.2369933596106	-18.872133044676023	99.63939962632968	5.9988356012117485	78.90221084395363	-38.68827136297078	-39.3397624283547	60.422985838008	80.46493033466055
1.3389830508474576	-11.003608515307794	12.961199565374098	6.634162779662626	24.20297117893252	22.06660084104002	7.513207030544342	42.10090094690099	39.03419841386943	105.83909057040844	120.45091553171484	12.956103551276499	5.083398021055095	-66.02565159814691	-97.74102176993833	-59.32997118548798	-73.74311310090691	-3.6511582804188363	98.62258659962855	5.440213130305258	79.10488834880596	-74.48265046142416	-42.46134984457302	31.581210137896164	78.10437909850643
1.3559322033898304	-10.169300536298817	12.982293187548038	11.811685438826332	24.468943314403237	26.964670662961765	7.231780915037554	40.92098646933609	38.37901584977573	101.73312560410535	121.68484155346401	12.995634058545036	5.091295553425812	-67.06152137869853	-97.71952885112188	-55.38242156430352	-74.96384893874138	-0.592575796847604	97.73891948432502	4.923935919475388	78.500436516778	-68.19810963223536	-43.906852668272215	41.34544785458111	77.88895764438703
1.3728813559322033	-10.011415997038855	13.018095456000669	9.635367125318556	24.86952257221081	25.642418052466407	10.311776620979913	15.21774997120118	34.44336024462795	101.5788269546443	122.90465167425404	13.002537285666412	5.093671245507245	-67.08316381787196	-97.7122082684977	-57.43573056019356	-73.52337773167973	-7.373933068339119	96.92081097290657	4.367552764888799	77.89145729933786	-68.22457354215395	-48.66161444108933	33.77628237179246	74.44420113443537
1.3898305084745763	-8.866794539323843	13.09320743597933	13.553891455861017	25.816330695320122	29.490135718324982	12.966082752635364	12.92871071272029	32.01231559385182	102.92768938661291	123.86879781439038	13.017225907003345	5.091456259709609	-68.33540914603309	-97.7487019446028	-55.01434255680196	-72.15731306692005	-6.280545285227846	95.42818687173695	2.76702078292164	78.13276590174937	-71.58258794557962	-52.63819872042533	31.65018830913716	71.43302398893837
1.4067796610169492	-8.755160177383148	13.283179515037924	15.177339379837298	27.780273946583772	31.26732023255233	15.520159491218502	9.294766385244635	29.344754430793536	100.11435013357813	121.39466347494157	12.063326810751771	5.067677218399913	-69.09373568746943	-98.04563236412397	-54.21073039793283	-70.50614918926796	-11.713737820963392	94.24797335269878	2.3779332487214475	77.93838420492726	-76.59802995932445	-56.4747215882055	23.95196754918005	64.80550803131291
1.423728813559322	-7.063161700069596	13.448224981142308	22.73742711555257	25.85816582670135	38.02341155710361	15.603034196741339	8.819024143094833	30.47539485475355	30.261650581753862	119.17661769079622	11.8425220963037	4.990607346075779	-70.28554331972029	-98.23339503587009	-48.46135886684338	-71.58761431637951	-1.095488483233786	91.97071309923788	2.4146063027943545	77.58316315886934	-79.48225232777571	-57.58714183012933	-49.52518148916323	61.34800868605373
1.4406779661016949	-7.883869530895271	13.320145743062374	20.67047772527496	29.522778624072334	38.05867016382908	20.37002105967158	5.2502376937767865	26.102643852855806	40.4788767811168	113.04468083749934	11.03340257331445	4.381357819791706	-70.66559261370747	-98.47686547783029	-50.5668704415188	-68.74900191868588	-19.61632952994154	91.13091395106674	2.417070182099138	77.09384563606682	-83.90973670919747	-62.77380217805826	-43.11721114441163	48.94757018889038
1.4576271186440677	-7.276299715717627	13.587174670371084	23.00209804695999	33.0040555306772	40.63583136691078	24.011375367769695	3.3235118914289368	23.029435646628553	45.686820563015374	102.96612013118997	10.87031823632243	4.027192682829999	-71.69706196497727	-99.04358315675812	-49.07445732474446	-66.11708632475595	-28.166446986512522	90.01471149482248	2.3364179691994247	76.15366131323887	-86.93781966892139	-66.93917268091204	-40.98161750978391	35.56415957242653
1.4745762711864407	-7.310773295423337	14.688784159181218	25.213898175055746	35.976324184726266	44.12020184511258	27.79002210495775	3.086526399756689	20.26908721049492	48.196536600838186	96.59865509772133	10.661993185778286	4.28175053822274	-72.03354872780913	-99.73039938603496	-47.29572391406004	-64.00181579233785	-136.20973782142718	88.32851972635581	0.7424996422384353	73.13328992216302	-88.56869820142906	-71.41923695785012	-40.325185988627894	24.96252611947498
1.4915254237288136	-7.888056065774399	15.781425820198482	35.017245525897906	33.92262972865524	58.905853745438165	29.083030614921896	5.966679002745222	20.07091650012533	45.73234560759539	95.74929530238863	9.696809658533763	3.9099885336479727	-71.90578519570458	-99.4827128164625	-36.328604502824	-65.17994432847637	-178.44728043147	85.5656232452005	-3.3694938215944044	74.11171228097719	-88.49145960681653	-74.4649706416382	-42.99507795344987	21.358942858292945
1.5084745762711864	-5.280148196785709	14.848825216370226	32.393885267718595	42.139039845913	51.28641505967507	34.914951390297226	5.592583117396339	16.992267468508803	53.94205731953877	80.35695935712111	13.84812104891483	2.973493893961392	-71.34694971183177	-101.22093791826042	-39.89623359896436	-59.394032577164324	-147.21125384114202	85.78199523045659	-0.2846894197189975	72.08948469508135	-88.05007579246534	-77.20202369934557	-34.342803740024074	2.9704071109504024
1.5254237288135593	-3.0052018874033815	15.157372009957442	32.42934597105362	43.22863603586131	58.93582704945422	37.83994289632149	11.035735506424775	18.746654909176033	62.68227976319196	69.87990530617645	17.182594351260537	3.426963072485106	-70.35169316264133	-101.59355210978178	-37.21859476075287	-58.23866367953602	-140.3020787386215	83.89106329085847	-8.165958463648703	72.64883232157752	-85.09229647662305	-77.30052195581796	-22.07034010680515	-7.221427313846703
1.542372881355932	-0.23725797110944224	15.28326614627626	31.838888737807498	47.709760566793264	59.61447161531455	42.421150277538	7.415745731329197	16.0178200556848	72.24936106420374	52.15626124339055	20.84724396907151	2.9788210771897496	-69.39618040598873	-102.79510390298664	-34.78049533699299	-55.013347655346855	-155.14505943891817	82.54775947476946	-12.631655272917204	72.61660998365939	-87.8886756855827	-81.37303381516313	-17.57198237521618	-28.88781971199524
1.5593220338983051	-1.099743008118435	14.988884412670929	32.028520696805636	50.48572994813702	66.35542991262892	46.8740864984966	7.111340983687768	15.008625216409163	66.7389625982417	46.59076704343432	22.237829548571607	3.0285036447758054	-66.91705082543325	-104.25548099297782	-33.93586293607263	-53.39656430364747	-162.20813405344887	79.6874402315094	-15.915097092958415	72.50804976787293	-74.17053498476758	-85.36594666792462	-23.375227282702348	-38.01415587246224
1.576271186440678	6.543939902426708	14.780024137644043	32.04464466214635	56.2038164882297	67.65900616637721	51.61923546604483	2.849837412395777	14.094782430851568	81.4862398461477	45.27415942872202	31.187918221381462	-0.3571086877029517	-66.17057301858306	-106.15991624521492	-33.45066404021952	-49.37765525815816	-158.73965248136017	78.82672282392338	-16.956368133148846	72.24506860858885	-96.61763725059878	-86.94408617532488	-15.592257524116064	-41.55150087783987
1.5932203389830508	10.36148773933806	14.799420093086828	30.984550184074116	61.074065851559176	70.1799834988771	57.36805419997241	6.8279525281066595	14.460499980557838	80.3010411801229	38.34924976958652	36.68351319550052	-1.9397043024976695	-64.20853308067353	-107.01137015429033	-32.977319329511765	-46.1256706476002	-158.66495453400304	76.30355624142216	-18.673552104303916	71.51732456906443	-94.4874194846217	-89.03652313644447	-15.95591546128546	-51.309770905214975
1.6101694915254237	12.14843514041652	14.83043404763895	31.652884762841158	63.96144887767157	77.19166175969323	62.447643087714	27.32596285971806	13.96762770628082	56.54650802920888	35.96072187380315	39.28431705254888	-2.890174993645396	-61.23453592602368	-107.51723911117718	-26.005408656520512	-43.648505072858576	-155.04879937126043	73.74174494429113	-21.656700891238778	70.64804336116319	-81.15615022595142	-92.01479838262254	-16.080361685038092	-56.3929348894212
1.6271186440677967	13.41635239289725	16.75486833709098	39.87047662030393	64.8126250158943	89.3500381912854	67.2710878723548	28.141483674623878	13.408839952616411	62.07545249706294	26.19314954142783	45.001123723424314	-0.7964110519613268	-58.909265697790275	-107.74105270757055	-18.741308587060377	-42.03633808786161	-133.11057701085022	71.5684914879972	-25.66309111751269	74.10391844643424	-95.452404931871	-94.14614348155891	-15.792708999308747	-68.09451325161045
1.6440677966101696	10.861898754300814	16.822553493272384	43.42736034943658	69.50012760777149	95.85709620997973	72.38570301914096	23.511416117066517	14.531030910772323	71.08751077016264	23.289745921257293	40.75069806408046	-1.6630815338050278	-59.26344634585152	-108.43462204733557	-15.487804862383165	-38.940213943579955	-87.48921295673406	68.18713260132407	-27.546017138504556	71.6276605574149	-90.1095545161761	-96.63541875855874	-13.871465048653452	-73.42343327286318
1.6610169491525424	13.288812540303363	21.187921138099043	44.889350338881904	72.50401079203353	103.9315321077915	76.59545631766426	16.892830439426774	15.045112765701719	96.54580397033502	18.294695849869466	49.349991368689096	0.8746048678234306	-54.20665825720276	-108.68340142718576	-8.929472565503357	-36.23354193236475	-35.23962900310924	66.91364659140285	-32.246653822055286	74.47639875255089	-97.07022115727473	-97.64700858325088	-1.9429093756141524	-79.40618955487312
1.6779661016949152	14.889304553038317	21.562153499615317	44.42310189581773	73.72437501428816	110.205389601378	80.0388397478952	13.707796786469386	16.30548048827679	102.05936687874733	14.737116049743593	55.9877595740669	2.5576500613678106	-49.56440383387898	-108.51585604678651	-4.736002023813234	-34.795872294244404	-26.495301500277318	65.16663898629368	-37.12088025652176	73.33706382950848	-101.37652524257291	-98.40446948698018	1.4715700897910997	-83.69495456982631
1.694915254237288	14.449566787360146	20.68862811012005	39.01221744733607	75.63256648565677	107.64856370063451	82.37637742419129	15.375839699663246	14.279463521365365	97.41901491595219	10.50841059762723	69.41848135162765	2.2756398353920213	-46.84357722796699	-108.27113014589874	-7.383933893550677	-32.740179247031875	-44.16135473458654	64.86725866380266	-36.77108874815439	71.48853295219742	-101.29317357408712	-100.9058904505185	20.836739885217288	-90.49601738901224
1.7118644067796611	17.349366788027545	19.645139845951032	27.258084613528784	74.30412983626927	103.30297491432827	83.02838025890084	-0.583370601936909	15.727317447349726	89.40103027718759	5.973535256878766	67.95065095659838	2.2297057212063764	-40.20156740626501	-107.36517490241648	-12.428108230374498	-32.8960486441403	-48.156145247366915	64.08158685523567	-38.36446785693664	68.33754548161302	-116.65745433852183	-100.02696895942046	-24.226444872040226	-94.04483593683538
1.728813559322034	14.34916948699405	19.240035064586163	21.472058397720286	73.49303388826232	104.65555756325386	82.99249451120389	0.1051983632213347	15.600685969895624	100.70860048796202	2.150020799408203	69.5911657212868	2.2208899261369783	-34.300659376022615	-107.10294563025879	-11.801029066735857	-33.4010653571825	-35.36427784406836	63.66238501928356	-34.66545312476948	67.16895369844548	-115.77781135344452	-100.81672564940703	-16.501902216061353	-98.6995788562283
1.7457627118644068	14.061810415190925	20.1524330283035	1.9444905198615323	74.60145263421035	96.60226566629157	82.36740514261015	5.982342402155976	12.52536523250877	90.41259944990988	5.773870292621029	60.52574068480242	2.3546415845255186	-17.82942372507896	-107.79154264103313	-18.32368881974065	-33.35785510739444	-28.77447862704624	64.43059810198463	-34.332521645938336	67.54143645913577	-109.5190177253421	-103.40078058067637	-18.783798729859218	-97.64374087147586
1.7627118644067796	13.935101370885757	20.643742119841804	86.29622672192465	75.8949409547521	92.83545817715029	81.32025404594549	4.695906267619773	4.557945909200492	93.39244120178513	15.176962322427388	5.487616827456398	2.2647002340988642	70.83447415801496	-108.01355442064062	-20.06636101421596	-33.31048720024982	-28.507433104762672	66.69805800583985	-31.73705911020272	65.73141876884226	-109.48804624620355	-108.8362957526413	-15.81481664489159	-93.52861624765315
1.7796610169491525	12.622367548161566	22.771687796378117	77.24026244291453	78.54383057927772	86.56398923600392	80.65655426657365	-1.840718301461837	-6.29409226428823	96.06042699047994	32.22091351679432	-2.087290474990847	2.3672037375982704	75.32432919366364	-110.33697237033803	-26.380002171719344	-32.16791835233297	-25.21444661057114	67.36803879934364	-36.55397642617761	62.46980320844054	-114.2224754968488	-119.11586423523975	-18.81453827986141	-83.851917941984
1.7966101694915255	13.787145994387437	21.30529734828425	74.33703368320135	76.76842368047579	80.18660972057152	77.129082028461	0.4387294405820932	-22.823204883957143	90.20957295367441	55.95338418565757	-2.2566148812315765	2.3786996483549467	73.72267411414447	-110.56328774592109	-31.558273555132192	-33.752372473635475	-11.721649895998333	69.00792324883255	-30.152261978951397	60.90308115713333	-108.9689798309131	-133.67906436775678	-21.62748823974488	-77.08941196441326
1.8135593220338984	13.753953392739076	22.23070219701556	73.08808307049672	75.04614734041124	76.72349300468025	73.10856022426476	6.297474757088538	-32.71063475522537	83.53119308047445	71.17169205057625	-2.0021602700615295	1.3592425902876615	73.87752107041426	-111.78304451423406	-33.35379064691932	-36.680772446200535	-1.7241911475161524	70.06380859673615	-28.285193373447715	64.44341187999373	-98.91212019545553	-142.5580945994091	-26.037749893991514	-71.32302311297465
1.8305084745762712	6.232032217120642	22.931345989295934	56.862382433726054	69.92223307502081	69.71155619241581	68.5562347736559	34.86946728213723	-53.78061477784669	34.73952846143217	97.1106943811169	0.9364869927084651	1.952691001365836	87.75299995337446	-110.66844831931346	-37.84522324273103	-39.563128817567254	-0.11370007680173089	71.48485242704044	-44.59402181849854	64.97350439864094	-73.42802881622386	-163.37149903316262	-35.81452329848778	-68.5984299149854
1.847457627118644	-18.195387149899254	18.56331847195667	32.708529615648864	67.01587469909902	59.47192952592121	61.33634723087341	104.55045986270747	-8.837535451645987	-54.184649572104156	171.0874285572409	-6.202697910000059	-1.8294605698727766	101.89341047200799	-109.52430786025208	-45.566878080009616	-43.82654798882808	-1.8987319592103633	75.09334347431967	-36.65921294961846	65.35140499260324	-88.33818201825467	-163.75348600202537	-21.812522749495844	-105.33939613682531
1.8644067796610169	-15.192339556591012	12.549740055057745	42.68796426833885	55.928513795938635	65.14407323084713	51.98849675382839	191.48509305146413	-62.43598820727063	-101.12337040912884	170.68316251280592	-7.134436133765688	-3.2149796675481275	97.87632561587598	-105.87851911287574	-36.938515692618324	-49.652085186734304	4.272698285647028	79.68631427787346	-3.741632749457575	67.76331294850847	-90.5641747180308	-164.99382877283682	-16.92662516657291	-50.912207360216264
1.88135593220339	1.2831695799801077	5.812214527398709	37.123303330493904	40.055996146093584	53.229900044642356	39.99249441614466	197.90787672832647	-82.64468082135849	-99.63610139623553	170.7499066555713	11.066968786087005	-2.389616261203755	97.88609384364595	-92.43926089346486	-43.87727164073269	-57.32167376050846	4.089513918912729	82.78778162221315	-11.655641587576152	74.46225153470391	-103.4631521917539	-180.28385995319132	-25.132149618729645	-11.507810168291076
1.8983050847457628	5.825162555318181	-3.588646082093251	18.86361174257515	29.23299126127961	22.9498487111281	32.82371700153701	222.7754252080633	-77.99965369281226	-66.31073267579399	173.81580094149842	13.54553326678657	-3.020832831870888	97.12304742056524	-89.50863204635395	-64.7794324377161	-59.90630744395753	5.875109381234452	87.16135009663707	9.855221014119316	79.30972824881668	-104.7522781869887	-170.98262033914247	-10.671290716831155	2.338858365822724
1.9152542372881356	19.675124127866106	-23.15894217980837	11.46541829681405	25.459360915878744	17.828275066482117	27.35264933669276	160.07797836727408	-72.97869865197553	-65.66347546358585	188.4512614647168	26.457503443249525	-19.622479445385814	99.03792496650448	-87.30103362094641	-71.02094524584345	-61.641405853664054	6.585186668122683	90.8187226757199	11.639669381690677	83.47074099714106	-107.52566372191608	-162.3099100817049	-6.307562225681896	25.99558944286423
1.9322033898305084	-1.6468687784813496	-35.718433216208346	8.602616120021013	25.531627706084116	14.111436300838417	19.47543426453473	139.029191690516	-67.94146027895334	-56.531345193730736	202.31000541537617	8.970982038151739	-35.88924065846301	100.06526907467052	-90.92704744732497	-71.14476654828188	-65.37938686689851	7.817866027328073	94.62621693582318	13.55967054722769	82.54915811644126	-108.42676075993998	-153.3981818428328	-3.248179736536975	49.79758423996398
1.9491525423728813	-19.534431860355088	-62.20051355804706	3.3117828477777485	25.748829289692456	7.193284224021011	12.019001586338335	140.95208163576226	-69.38939146021971	-64.26325974769853	174.65752730449532	-7.181518023822062	-58.89579399602141	102.13267860465785	-93.61864843103267	-73.79987362608597	-67.90753356031827	9.320248886406892	98.97295231282354	19.716710644427515	88.51204952293146	-118.19657650848744	-149.1853518567913	-3.414954572831882	84.6119937366744
1.9661016949152543	8.2817019030516	-71.38479386344984	0.8615305810955065	25.736772222429227	3.478337429981856	7.0184673215123485	145.21865880824336	-68.00709292232844	-41.61789829658448	202.30159609178548	22.811820553133774	-77.38914099073168	103.77773977498437	-95.82141399489126	-75.43585400896593	-70.48487319956338	12.366842241611412	100.9867567479585	24.55774342262388	96.99040528604024	-113.53759508648511	-141.42856488450724	24.159041468421094	113.56210140731075
1.9830508474576272	-9.918613629326124	-64.59684137176332	1.7818990825243124	31.655055638500798	-1.2728930942702201	3.4823793472261872	152.1139057295122	-74.64142617897983	-111.1042447857276	145.43745186972112	3.7405434469903835	-76.23817897175569	102.86523568057729	-98.58623538759838	-75.40092911898543	-70.20527625911038	12.324913835065967	105.86993633290517	27.575686678236654	102.26584870762035	-105.84994435558245	-148.38483272502663	-30.684972298015328	154.23341895403252
2.0	-4.531314373925918	-83.59550734133936	1.7905915045894334	18.35351072457939	-5.517205249977471	0.036557353129960696	152.9206785624693	-69.65500600907444	-115.15984836547506	136.1568257896648	5.213134872314529	-84.17303703464658	102.23394302541169	-90.63311594906794	-76.40084140407846	-70.31775015571206	12.409881203046499	109.46609913892479	33.224761245116035	110.78108793941057	-98.48130653598815	-141.81737206387965	-31.036597840390133	174.77638120468097
2.016949152542373	2.843331422327308	-103.2781295787861	1.370677454752031	8.415609121301138	-12.349576340632312	-2.215846472120662	151.20666062368818	-67.75151103712331	-112.9350605207242	124.26612628636146	15.300855032123064	-90.70455611963709	102.15769716999691	-78.9194771336555	-80.18990550657922	-70.37404168621542	13.660317252748701	112.60604927530082	38.79372031621326	119.35289990923062	-96.78598212418476	-136.1928457761992	-27.019099610924055	161.91098603071822
2.0338983050847457	-7.742253562728232	-63.64161428083672	-1.7445302981373418	4.031086558032355	-17.479555804443766	-7.666503542935716	165.6051652500804	-74.48358504881809	-95.07600607690327	42.047857479906746	9.496358207774358	-86.22405028960219	101.4842660632048	-88.79627934974148	-82.36181950835469	-71.49280631778977	14.773975953044935	117.53513989548976	41.377307864862566	120.92471266484306	-97.30909479133278	-136.4665534074882	6.305549153621544	90.5061237754102
2.0508474576271185	-45.15866550964909	-60.37851804107329	2.8940458551417327	-3.7107222662322417	19.018503945979628	8.893345821956999	194.967296304076	-100.69435772981639	-91.1394654379221	-32.3139064648642	-45.01264225050101	-68.25999377377411	90.49400661166472	-96.3475477851997	-85.9201957779054	-100.45591512843153	-6.680334253266369	72.03689340435739	-30.222634827963727	72.81318591823974	-94.96023668303602	-210.22427763120575	-4.532121330681108	115.7068058159968
2.0677966101694913	-18.964967011803765	-52.337657432176655	4.9528877459611085	1.1273065518634908	25.940352269782963	14.548862019583067	194.59121495805974	-105.11973927908642	-88.36354478501521	-13.857937942467624	-15.62802930224004	-63.80344390588482	90.06080786481785	-101.4011120561753	-81.26992542308288	-100.76455451084331	-11.582314168121162	65.5657995809506	-32.63224498582215	69.69886118604862	-98.91015279323436	-219.94925255970114	-7.621967740464547	126.71683670795927
2.084745762711864	-95.95439283478774	-58.33355378150261	9.683073756582377	-3.8016713387144407	34.12161104686034	17.31601421745821	194.48607629711327	-101.6953659072171	-94.79654041179998	52.57896874791449	-96.0745095909525	-66.78778060514854	90.03712378789602	-98.9300369263336	-82.0166779671329	-102.58835260595015	-9.782307747768673	61.74802982281365	-34.17575669162115	57.70898222197071	-103.72527441887114	-216.82429765469254	-14.813013839144304	195.83125752248807
2.1016949152542375	-13.607829038727685	-77.1089152389366	11.824745775907914	-13.240869568255745	44.933320812767	19.289554681921945	197.9847415937163	-168.71509836731434	-97.68225081481728	98.79522389071934	-23.966225087082226	-77.7665871154509	89.82575296366663	-95.26002645771256	-78.25782296272149	-104.09196869929089	-9.240113298328378	56.62664708317785	-34.07261159603083	54.96113636375193	-106.10745979775741	-292.37795061568994	-23.624667098575298	172.1945882151132
2.1186440677966103	62.020310391048525	-78.52131786208199	12.72925185697987	-17.14467142166706	50.6751927098502	21.355879395097222	201.15199371405856	-168.31709468287448	-100.99601943030312	92.78214100226728	60.759234542357675	-78.03134610744908	89.1243777105187	-90.2789676544689	-77.59926072241173	-106.69033987167288	-9.446775801931636	51.39025765201307	-32.76136525923229	56.39283914108469	-107.5647469354902	-296.92968613755	-28.557671441146287	155.66587956763135
2.135593220338983	32.00724589103579	-79.37722433930803	14.424073587161102	-19.21359446489959	57.44359655000394	23.707206872839688	203.67683771737782	-161.38299904480164	-100.22708804897917	83.59984461852792	31.508103706140158	-78.36505561293475	89.2365520319129	-88.93616647563478	-75.71022177189043	-108.10862801933014	-8.686429993676054	47.12770624307539	-27.64801306603169	58.19839955813721	-109.01224751793922	-293.8483247257348	-29.02325527549574	150.16061356238106
2.152542372881356	36.259628129786876	-78.68811872527192	14.025896280340358	-25.399606792700677	59.718483928581925	24.673096287353697	203.5959764378938	-124.71151459153323	-107.51050437914425	50.63261909132707	36.3248930858674	-83.44329682523508	89.26213579003792	-86.38825597774526	-76.72176287399915	-111.59102857686295	-9.580465618104206	43.43846666859255	-24.002388126759666	58.85125721281103	-112.69131362505935	-259.3626924370784	-25.492156125501054	149.44635520291607
2.169491525423729	42.90406706018325	-85.84484278260724	14.383221112767584	-26.61945413063364	63.6858146427043	25.35868672531998	203.88829161707588	-110.23984498479857	-100.06863805060966	29.926989834621406	42.006664944423235	-83.57689739326823	89.36513475101422	-87.41957223865846	-76.01133215576573	-114.11706616551626	-10.416010971781052	40.44928745482595	-21.26890233053172	60.17833697908183	-115.57484082644417	-249.65527898229445	-28.502244729379182	141.02678210100223
2.1864406779661016	16.99399750591642	-76.86625714925991	14.453805832475119	-19.597077874777767	67.67253953507876	29.10555300997842	206.79953338886662	-108.63956315777288	-88.09758610848843	32.18171783169378	15.009342548121012	-81.66107001358401	89.1755635419591	-91.89906178559191	-76.27380675032805	-114.46248400486226	-14.570088718971348	35.99293336556168	-18.85241103663051	60.443328645086574	-117.05240672449106	-253.8870114568081	-24.665421516709053	139.68868524822634
2.2033898305084745	14.19979175574301	-65.15645799378896	17.092518283213174	-8.609585255431437	71.14561523607618	28.98723728614689	205.2815311010926	-109.23895369962588	-45.990692497298525	29.474928753818414	12.69923808920029	-82.44728527975967	87.89950873839723	-108.44232604978733	-74.79702296069094	-116.53329929293477	-17.132501162988646	34.45133353897665	-17.579133821803264	59.075028036750425	-120.14448917143741	-256.6409600829913	13.765475958718824	134.9755085197035
2.2203389830508473	18.93888356324291	-42.321124672598984	20.384157524585664	10.663308223589615	76.6724703704938	30.767759630272558	207.31717449905628	-113.89589986352749	-117.05912845123085	38.046339550495986	17.97857085954942	-81.51341318824497	87.17339799572866	-134.03920275968548	-72.99227200341771	-117.45827002664846	-16.404975610291256	31.571983932143528	-16.68947665171272	62.23740644064637	-121.08022034357899	-263.0752965441066	-58.480213631089796	135.4972409332515
2.23728813559322	26.348439650510063	-29.30711391494321	23.04920167424313	45.05079867841091	81.15116882904076	32.45884780230329	209.47061402460372	-123.21567828230641	-138.54651007926842	84.3351032950185	20.600404505408108	-101.67940241483468	86.42312017379102	-161.08006181350757	-71.50685420647513	-117.7875971626458	-16.32133645512613	29.538185709439162	-11.956795183636956	58.721055910325575	-120.91048353677631	-273.84074897590654	-80.63625885063733	139.56999442643178
2.2542372881355934	13.835484307157216	-5.741793899446164	26.22637385447049	78.80812367406762	85.91004726443813	34.56875629105635	210.5211991060317	-118.03357814865343	-157.51791216576402	52.552157790146	5.357043258043434	-111.01309191884575	85.58365606237022	-131.0807921451969	-69.35239437371446	-119.15979797281291	-15.94745669445279	25.929757379013584	-6.840396062372039	50.28504294797101	-123.19349733016226	-271.8738393062364	-98.11516496628049	139.2499880420142
2.2711864406779663	-3.562276205818485	0.7958786410637808	27.436357773370272	92.28836866749256	88.81019048973822	34.643940651678186	204.89189787262575	-120.52060304342714	-154.46222864397154	75.69796782411115	18.61009336916181	-124.9478138218923	86.36396383276269	-130.1490301070561	-68.46988601668558	-118.38811094612073	-16.29418475003037	22.446034589165144	-5.175667583729321	45.768488651342544	-130.22275850432203	-277.0023902079845	-75.86620222720246	160.680042555668
2.288135593220339	4.816556487029718	22.435590479199092	-31.670427692312874	84.36765961479604	86.70466334123182	-35.0256114245363	158.97283333501133	-59.88030743918968	-215.5472495893379	98.21795308909299	28.71689373774306	-197.77348310208706	109.78533892343864	-129.4123004765378	-101.10829419010594	-46.16739115536491	32.97299423541645	-8.420968250162193	21.89112537563088	-26.42267959358288	-211.06246904501342	-248.91741134725626	-68.16939884323807	210.27314729048996
2.305084745762712	-5.9323885723048075	27.855988070621848	-32.797782181993696	80.17514766685647	84.6489247731325	-36.82785478067456	158.00638658831744	-52.72078411524092	-223.82688008489924	81.70591779370831	17.483120137485628	-189.00188847393153	109.48778145383274	-124.41621045101003	-103.21721465307759	-44.39490564259371	32.459037362745114	-7.724538846729353	21.222341615845135	-36.68917752223991	-209.7136570085276	-238.82408213769588	-73.54257429604549	206.5231604584514
2.3220338983050848	-6.542201206922648	34.91996463844333	-31.711318664559574	80.81902662106597	85.4969515881935	-34.88013926717615	162.85136895154238	-35.22246226800948	-230.6017252797978	80.07052780971105	23.60842975095639	-178.823585434037	108.82766999070928	-123.96125244304467	-102.87966259010686	-42.98279764803928	33.63053171312631	-8.277184247454354	21.276396289855853	-37.42454507905928	-205.19612064610288	-224.4138087716931	-75.77089705822199	216.4366957885324
2.3389830508474576	-6.553875732753085	32.79559984604538	-30.97912497751366	81.07076383808845	86.70330360046539	-32.722187578998806	163.457071623237	-34.29172426874935	-233.65177100052773	77.97929363048475	16.44124320898608	-179.1416154783322	109.19891330892854	-123.92473829249978	-101.77143028357577	-41.10966043160494	34.24692480232086	-8.453153212169713	20.938375180851867	-36.660386029297406	-205.0115131000014	-222.91837939842944	-78.65741626664352	214.66387553619958
2.3559322033898304	-4.888687126803469	33.604324271086895	-30.57976854309609	82.22218287015231	87.13949578113485	-32.02588363819811	166.2336804054349	-39.80412985865657	-237.57606817293217	80.81155356129466	15.416339104808532	-178.68081925400472	109.40008334835899	-123.8970414619392	-101.16800847081608	-39.98162382166738	32.94312173432089	-8.141474230368331	22.337976849701032	-36.44547810215637	-201.66890391525828	-227.60684195781457	-79.20302539336636	213.29824266954637
2.3728813559322033	-10.401211067023073	43.175865366929465	-30.571271173689514	86.06163528128295	90.19763096704675	-26.83931505451195	168.69483086023277	-48.558371428763756	-237.48408385305757	78.80077034726088	10.277542923751028	-178.66398912900038	110.02132138149244	-123.44472818288646	-100.37923258737945	-37.36859392299142	32.2517688110046	-10.606556144759885	23.996760953723147	-36.921171805373326	-201.46811977625282	-237.1413606951128	-78.97633953697574	199.08060845969356
2.389830508474576	-2.1662091881124725	42.223810940664116	-26.434414703642656	87.80255061928077	94.29041555559365	-25.390616217740394	167.136341018192	-45.98919199303457	-237.78670663183334	104.15830913149833	13.249560249456785	-178.21463303039172	109.47139538961869	-124.25994722988467	-96.97906277595978	-36.59203328218577	31.30623959044449	-11.205877698222348	18.700936910527705	-47.312384411297025	-204.14625073661023	-237.23041761744634	-81.7311502550362	227.6171205218783
2.406779661016949	-2.8457602530584354	38.673070207781386	-23.286754803514782	89.94020555845859	95.18350303015055	-26.456619755336714	162.53759355689786	-49.85666739149951	-227.80011559236627	111.588046364287	14.186024234344828	-178.23465975961807	107.96762654124544	-126.64805158902281	-95.38536858389656	-36.97891254363222	28.99504895018195	-10.482630532523235	16.688284854932757	-47.682256938246724	-208.2041523229249	-239.98302838045072	-76.22974965119418	231.3764414567971
2.4237288135593222	-3.5171998216407814	38.77891985393077	-22.14863023748486	93.41521336805467	97.73732590711892	-22.769615294930695	158.46798743746155	-49.248376039256996	-227.06145147236393	115.74730436982306	13.424818048788012	-179.9245355296418	107.70848883003282	-128.75475719008932	-94.44346686738734	-36.93140134094791	28.974736328249453	-12.205643407321958	17.262642140877166	-55.115789751761184	-213.9712620912736	-240.06068254576246	-80.91028153778024	234.56437602403128
2.440677966101695	-4.491676290089947	42.24550448984774	-21.1572020412475	85.59563252618037	97.93123073869776	-25.114844709040277	158.16654723134297	-48.759579732170316	-226.98111187548807	115.92557160676334	6.432174060622835	-179.5898658028519	107.687844001972	-134.74421923017138	-93.43065954987487	-36.93234932044625	31.358685222287118	-12.302831012487154	18.557583688251306	-52.60535177781808	-214.15497779512097	-240.3620025684243	-80.96515494973315	245.4572788152821
2.457627118644068	-13.576602779428494	42.467313188459244	-21.00735098729986	97.81116210954302	100.48908938338471	-23.30379917623151	157.1208144034374	-46.35919473959045	-221.832556119364	125.43345586238178	4.669874858414648	-182.6263569577297	107.7939015449471	-135.28860376995922	-93.12557219700133	-37.00421984029326	34.464550395641275	-13.74066514524418	23.891790555669193	-59.32814604942892	-216.69812628077494	-240.0997254587539	-78.6461907676255	245.6999561916307
2.4745762711864407	-13.74081832930627	46.12529022526759	-18.91345590410068	98.68694128522066	101.40879594407862	-26.359616167557487	156.8898463377623	-46.98122194659634	-224.99437770567621	128.2965276112282	5.328389087484019	-181.76339960659377	107.43315807004403	-138.89241681433626	-91.70341460712267	-39.1925496435657	33.90663549898497	-12.7508390359218	28.010638791233312	-52.479865053577264	-215.86014118794958	-239.85865961921783	-80.76910975277296	248.74252716763192
2.4915254237288136	-8.259916492122029	50.51455951007726	-16.529815297635114	99.43514221778237	103.72538509574441	-28.061409231119885	157.21752299113885	-48.69545489199354	-224.23875269715202	136.76153411617187	8.391334748270717	-179.61663150947098	107.46590138114583	-156.0885620443218	-89.53800140242073	-42.17284555228555	34.69674520459402	-13.860553461173385	30.85734909076134	-49.76568125533997	-216.7941336064466	-242.53887492270624	-81.01000165974617	254.5915635987142
2.5084745762711864	2.982881866840439	-35.01496355835388	11.72597572558766	97.88682851637128	73.0897235100437	-22.877974162419516	158.05287487926304	-51.174064284194515	-215.42972826920388	222.81834595386846	8.756145876343057	-179.60462496730813	106.3146746960687	-197.518720383195	-82.84005384301159	-47.37222578060057	32.59000037733493	-12.014967878672607	23.885294186159225	-60.44119196431548	-221.68059367872962	-247.88456767394507	-80.95439117774917	291.55490375019156
2.5254237288135593	-4.667944509436863	-31.203373494911446	8.119778775152035	83.94009766064718	70.62736963544384	25.88026822513668	204.6634423654171	-128.00225244278863	-214.54921389467515	304.00552284269384	8.913495416196508	-186.52977372806055	87.65771679701162	-156.37996855241968	-84.48117505394357	-50.19201972604138	-19.905852310729507	27.526017102477986	-15.222071107577268	-107.90009554619529	-287.385731444855	-276.99072292320204	-76.52294688573681	239.61820793520042
2.542372881355932	11.683176928142188	-41.25876131009921	9.970934027054415	73.93858019058588	65.05875074588643	32.6088900881939	207.59945634573893	-129.30009214594264	-159.62697981226478	383.24287093577374	8.952140696698471	-143.06984837016822	86.3257876273932	-188.0837353666732	-83.97297541485878	-114.6458003755762	-23.564004467291927	31.39970041885335	-18.4154109063968	-109.0454745699855	-300.76422829547437	-277.7770454218049	-98.31877626755725	285.3086817014755
2.559322033898305	12.231693140588998	-30.36326516416011	9.048034875513226	74.3103291927505	63.048307992763306	37.913162386773	210.53473248056392	-131.4761774364781	-165.67733651960714	373.24406429648	8.937121688845695	-124.96096030953821	86.46668256684116	-184.13692389852707	-84.56912350724919	-109.70672540732143	-24.39603744790546	32.464615868964394	-18.419923989966218	-110.36720846078983	-297.3494930239988	-278.76091217502164	-105.92136119657648	275.051978362358
2.5762711864406778	12.027652450574795	-12.070804015296723	7.8980041324835675	73.866834895512	59.14975798799895	41.777027745996264	218.13820290342397	-144.39226960210712	-82.52048632650698	381.8386801272975	9.474750941397488	-88.31376832969833	86.19315115207654	-177.41854705685287	-85.5712115456655	-103.45317275373999	-21.231150603739714	34.922522094150494	-16.65537672425244	-110.71331764851905	-287.1356450710944	-284.43648955402875	-187.19782968562208	277.4438703191498
2.593220338983051	11.96599468476304	-0.40998577783839074	8.748841680041524	73.17404221549857	59.052813719782336	47.843738891972684	219.84812493677973	-149.0145350579781	-87.5589757929805	390.6393611538463	8.552804702752024	-79.8770386089453	86.09793358650019	-170.1172086926213	-85.20674095432723	-96.77650758198395	-24.374615285041124	35.82474691726966	-18.555214014394107	-110.80931523479424	-285.44386684535965	-292.9127602169855	-194.65417777333374	277.63513350481355
2.610169491525424	11.725308391614433	0.34129023961657756	9.709356700437219	72.93430030554889	58.23669462170972	56.673815335280196	223.6135629043988	-152.01049562566408	-58.24055404594698	388.74676284335777	6.8217188116273615	-83.14288341024243	84.77110022017278	-161.62422962630666	-85.35159549210653	-88.24719692716388	-21.99942898736354	36.22857445715307	-18.58870423792147	-110.80849965031572	-281.2156823523324	-295.68807684066496	-157.62139893935702	273.0866960363255
2.6271186440677967	11.643718739968241	6.236448967367575	11.025831915012796	70.83628118836992	58.15142401446125	62.246471833817665	227.60751470306528	-154.1855656359283	-54.62966227230361	390.46193246878636	6.435178042311267	-55.42773964197182	84.679324197345	-155.88024390603735	-84.34596700453966	-82.46790148195296	-21.324467932394782	37.57870733063599	-17.423738717962404	-111.1179061595776	-274.8221833983584	-296.54013958468926	-149.40460483519607	273.90668912914873
2.6440677966101696	11.37047123750815	0.8936498643199023	12.249664308424048	64.91576005959227	57.7773236098658	64.82305213060482	229.8433525291184	-156.29803453500597	-51.06436747265263	389.1560205559473	6.013649521054571	-51.89104427320429	84.54699274478475	-141.9219655225681	-83.25792639084312	-77.95975632499528	-23.793674628593696	39.05018161651959	-19.484596214247986	-112.72165748331068	-270.9501738621506	-297.58967918317006	-142.2304208646437	270.74451423830385
2.6610169491525424	9.301196297507476	8.514202267914913	14.49765632540367	61.35351627795396	55.70799407259149	66.92910026482386	230.0539716664437	-141.3020184495126	-50.70322826770723	436.2939906535456	0.8341616696994594	-33.01705699226839	82.59583516167332	-133.42723679501665	-82.7101270423264	-72.73955143580395	-24.406925939297498	41.39156480816747	-19.663177253941498	-111.69887438339387	-268.1006256962154	-281.57478438067227	-139.16181109614325	336.0043930842016
2.6779661016949152	17.91665894566408	0.8974833635889514	17.810013660589156	65.9017052867717	55.56727498650823	70.64749497265622	229.89802299677086	-128.30390940045697	-46.527935258080035	429.0927631581291	5.217071010348704	-12.731105063631496	81.51052567184834	-131.84500081961653	-80.75230961125854	-65.99939397733739	41.10107723346305	43.75904508816868	-24.30149988893315	-112.15634770379532	-263.5305911561688	-268.49615171811143	-130.6352178859723	345.32867776219695
2.694915254237288	19.98124802468844	-6.746103446979987	18.864003310269926	35.07710646069283	53.6252771320717	66.7039568403884	229.86324540123377	-121.67328853572884	-49.92014331361678	419.59244422828925	10.066715226431661	-18.65575829772929	80.42735725039296	-102.36863650889485	-80.26960255447662	-67.18065616586293	22.3422665329556	45.8762122140207	-23.524934989447033	-112.7812755347813	-261.9762422062004	-255.27926976799424	-131.89226623294797	343.5733719367524
2.711864406779661	16.392024955268717	-13.953482854390986	19.036324834454998	24.092628893977146	52.88461762780763	61.86740275667639	229.3532297889152	-123.26744698502286	-64.50460245380225	433.54534744788066	8.687884991348195	-18.4655849993451	78.82376063927897	-93.40069278066056	-79.02070076838329	-68.80799045037948	10.333225703390239	49.10526103561699	-26.230987676630367	-105.52778909312774	-261.5873661090232	-253.90347813159408	-145.7474956909152	359.0828296722557
2.7288135593220337	19.836584047690152	-11.49701941292628	21.525558413841075	22.585135005164457	48.07625964220712	63.5457833836466	228.99090757339727	-122.02357129892683	-70.31446552051227	424.36358399273445	8.422567128116409	-8.745132112210353	77.79537985623038	-88.29452833980719	-80.5362937815436	-65.13664516586954	0.5980010373409135	51.41355200826773	-27.064201090935835	-106.75514733599589	-261.67746622095683	-249.41878636894407	-149.80467701586696	355.69763108930186
2.7457627118644066	21.84089764108463	-12.005202670824648	19.974311673101322	14.751566732169788	42.62428582013557	62.99578704563123	224.86428119774968	-120.26649300477727	-86.46612254263904	421.49011282727986	8.786024447376773	1.570668082621265	77.1237213496104	-77.09583515131082	-82.37423981732003	-62.76025725929155	-1.664469711786567	54.230886426126645	-20.927718273699266	-107.10468405068725	-261.26030280512464	-245.1839762192201	-167.937034463059	356.5858668649163
2.76271186440678	21.892591122934636	-13.990164364453355	18.879193714504805	9.406135600352572	37.42403610485481	61.9388416437703	221.5713794222749	-120.12940073171521	-93.96722054755871	421.0446319433198	8.28662293642124	6.775691976329477	75.73412633440206	-70.15350706390723	-84.5412181110859	-61.19407917769894	-2.558573536871063	56.756823406251655	-20.27274910922509	-106.48128246038102	-261.78602674564814	-243.45198570314523	-176.43847022472696	357.61872975858006
2.7796610169491527	21.52595366695842	-16.41040478032221	20.619398076694647	8.521852732641388	33.866326544896836	63.46337019250364	219.13953199006875	-124.40723882481115	-97.04693701673826	421.8201055533058	8.287066010268976	8.05378080207487	73.30300954356113	-65.86563613132437	-85.84367182718822	-57.348531148652	-0.8731129466469385	59.03099128488475	-19.49304308790736	-104.77307412552001	-261.8428047202595	-244.89721016863086	-179.62748456700479	357.7044220159443
2.7966101694915255	21.430146097439792	-15.303013663399994	19.160725676283242	8.700066322553885	29.11109289273434	62.56870049263009	218.02805977834336	-121.70734138623446	-99.40312376344464	417.8360262984385	4.307183432199042	10.108279367905071	72.09036666637866	-64.88409616438663	-88.56198606847823	-55.82195216204063	-0.2501817580536825	61.21367610040973	-17.250646226896734	-107.29910638026575	-260.7767618270524	-239.89444067481935	-181.1947534341643	358.11675677662816
2.8135593220338984	20.510041845318728	-13.74884981187993	19.435509402592086	9.891029097091554	26.509959298409893	63.576432551893674	217.27977509847648	-127.38271754808694	-102.21505303872999	425.3255571508244	1.0978390023277544	13.224503915495415	70.36308453206591	-63.21646337892609	-90.0191696557296	-53.65444507786913	3.437698397685716	63.0360512284639	-20.51338703538106	-102.16474816115151	-259.83272708932947	-244.30373778042107	-182.68432163279036	361.08906193184663
2.830508474576271	20.08161837262054	-13.800206426779516	22.139936271922238	9.659315364190364	23.38479482556439	60.097145204222954	215.77589965713145	-126.59308873470617	-108.45257680686268	424.8899950253135	-2.7364770662965556	12.58209726141035	67.17097049523765	-63.64981604473036	-90.44253004094588	-53.87391770154828	3.3667531275435305	66.06609701582218	-18.995662679285594	-105.10036042244381	-259.35862828643167	-240.5410943662732	-182.72530741203286	364.26683392578127
2.847457627118644	23.67754497746745	-15.862499305754636	26.230190764134964	9.410699100238805	20.98988360838089	57.28256655386332	212.47037676490027	-127.12548587502206	-104.56600609967225	425.23058417931395	-2.9112753445027826	9.698222673070076	62.86869408026907	-63.86356003627863	-90.56048862898326	-53.78019582026689	4.431733736020205	68.54489237978021	-17.93926623916986	-104.7679301203162	-259.49345534793673	-238.80683594391763	-182.77121587169333	365.6355026963512
2.864406779661017	13.532953646443353	-17.85104211450642	34.83108575659947	13.386077711113154	21.682291863172406	55.86005986805455	209.88167075371533	-131.11964805236693	-103.95051802814005	425.6622556086556	-21.139175262091115	3.797729188291264	56.942980446982254	-67.05889316724831	-88.30387285801247	-52.858908071574746	5.880758108287655	70.7614652317124	-16.86933778284807	-104.158877227561	-259.1443254890208	-240.75994787903963	-182.5805734653032	353.5944953156359
2.8813559322033897	7.917446256650547	-16.488224702800764	45.504025116177196	20.628742286958953	23.041997189026162	54.68172876706663	209.17899947473686	-139.43128077981504	-103.75259127950164	426.24353381414824	-32.150539563174796	0.48516396208409684	49.83832691952355	-72.95487470607065	-84.9504983279852	-51.924058025386095	7.744505708267593	73.44639622823522	-20.31031413731439	-105.07381406990837	-258.0633536016018	-245.6946378400343	-181.03924622646838	352.0123286186863
2.8983050847457625	5.622962889409455	-13.580298231050671	56.23328705556245	27.070456553451606	25.45077568073439	54.52936793537309	207.99416394708646	-146.01642476370287	-103.7012316419743	427.9897288185439	-43.80481496933457	-0.42891374317227005	42.96826541687628	-77.87196161300761	-80.31928835909602	-50.54611040570817	9.705148861953568	74.79868146382698	-21.60831201548598	-104.9255150086235	-257.81672153337644	-248.36209732207314	-180.8848053856678	355.335146138494
2.9152542372881354	4.737628525959111	-9.15430112361495	64.55923530572737	32.43578022002616	27.19664804388324	56.29747571726878	207.50684044879173	-143.87007445284567	-105.43085536592734	431.6806418109871	-46.38997100191397	1.4938128742470935	38.596061589129754	-81.15998548437683	-77.30729211650736	-47.7598274364011	12.330480962810235	75.79858293068827	-23.778498614374364	-105.54521974040387	-257.6203533304659	-248.2548546765517	-182.64392265188877	355.48108208003976
2.9322033898305087	0.73267852052135	-1.7151608058147794	75.15691524447156	35.396295323326626	31.025572088551776	55.676696571706344	206.11651412779273	-147.5916608795886	-106.98059300892095	427.3833925599185	-52.467785555357565	3.91273373347697	34.77693405320645	-83.80446113793438	-72.14860676015934	-47.835788267935826	13.9448725273983	76.84538872896371	-30.14163608095595	-102.47856183862396	-257.4344528124694	-250.51311108623807	-184.43559990538532	355.53321529216726
2.9491525423728815	-0.7711794648325938	0.9191380683849851	80.82762197527263	35.426891331409415	32.11613889258878	52.74815382233457	203.70704089072902	-156.84648833152656	-105.85592370959431	433.86620018751273	-59.9129373109305	4.572092175410959	30.93276177776577	-85.44349044170218	-68.84244101652256	-49.494111817532044	14.82643745116119	79.03943957798867	-52.721830721315975	-100.19897079039309	-257.4381939956467	-258.2019361253998	-182.9092095621482	356.15176391794995
2.9661016949152543	-1.5157405799584738	0.8108886172875106	84.92621287311049	37.05453703345706	34.65988766413496	52.031904982085294	203.27805894238298	-159.56527408326102	-105.44582423538525	445.7307279870561	-61.93205125822027	5.425297219361388	29.60165700590227	-86.51504226513119	-65.61275637929745	-49.07863795515082	15.457583582899328	79.23758820533298	-136.09323344083475	-98.7382225218958	-257.51293464449975	-260.3916050517068	-182.5253864013069	365.71350772824286
2.983050847457627	-1.9636726533187712	-0.511543889282556	88.12176378560876	39.22566102792915	38.90742711277695	51.968092134349945	202.0036483726899	-163.36813904978226	-110.31353665960071	441.3695764011691	-60.42820570912788	7.499928746649033	31.676377285178617	-87.23448220470713	-60.25823388820797	-48.208229418533485	16.37852699925492	80.0453505249458	-140.85975060931742	-98.06635533943671	-257.6946176375185	-262.4260796958474	-188.81463341519932	359.0831904633604
3.0	-0.6127292259116335	-1.0974698995646888	89.82326329845893	38.608333631658276	39.84690871676539	48.68668569732775	200.95824453610237	-164.6091708301543	-107.86035286122929	454.5566214046485	-59.11136281984791	-0.45981685324100585	31.266799824165993	-87.93292044300337	-58.710605025186965	-50.04762326415679	15.087587852335158	81.6162461720185	-174.1115780319274	-96.58952928550781	-257.68187817624704	-262.0625418549215	-184.76506801328296	372.71804043016357
3.016949152542373	-1.878581998155657	-2.3813758911742973	90.61289557185484	37.249058991040755	42.947044434648234	45.17976230852661	199.2277583972681	-167.03586343842173	-107.72526956045654	457.64280539548463	-58.395983571343436	-3.943571043221147	33.96229155317144	-89.10517946751338	-54.81503383488705	-52.06061662929957	13.867214089078946	82.62249711611446	-177.1430631617152	-96.6541502751498	-257.97630997416974	-264.3328772357511	-185.821586773462	373.10325710503525
3.0338983050847457	2.603377013447666	-1.0577759131814637	90.37610021881179	36.99601514356464	46.23186527156211	43.52497441938185	198.54310110741147	-167.11397714060908	-110.90297329997763	452.86154560862633	-50.42473086070709	-2.5370115475252293	37.12835077378354	-89.94082647019012	-49.87787586353278	-53.02339435161694	13.970493715287493	83.19834657809646	-175.38404086294767	-95.78460201620413	-258.1616346569788	-263.8946879009027	-189.44177773622405	369.2423992761416
3.0508474576271185	5.9578654155813275	4.362020244970467	90.65563467404392	38.64870660790869	52.48712646557226	47.02626115146008	198.94483066553494	-167.57241795285415	-112.52023722744313	458.54492231365464	-42.71977909728587	0.47320663391216833	41.007222010799794	-89.34263870904154	-44.97206805046805	-53.31543439085686	14.61774409453373	82.43842628655233	-173.91044131590772	-86.09037641215147	-258.460631244284	-265.74950988271627	-191.3367592238318	372.17386821050104
3.0677966101694913	7.013024612284047	3.197181909508725	91.17893995046562	37.47136965628422	51.094862032106256	43.00422479152862	198.08595699627085	-159.74455238970063	-114.6433989008684	451.7972916347927	-39.334951136988394	4.610585475559738	42.915346603978314	-90.39241749458503	-45.020710995374074	-53.52469714337428	13.978638774504851	83.73416091461159	-175.9073532823594	-90.83007474915267	-258.41158582848516	-258.640481326898	-192.9254173096642	374.2908379026706
3.084745762711864	5.487847850153463	3.6420876372374456	90.53232525388192	35.419349769627495	55.278679695761035	41.02229363487791	196.87231646650122	-157.2115978400052	-117.27398606448436	393.720751529507	-37.547291719144155	10.31236740138365	46.07504033195606	-89.17648247871938	-40.411879793223356	-54.38824108492009	12.73383510491264	84.26449554687812	-175.39767184245156	-88.17338016810517	-258.83550646123575	-252.73914977609056	-196.25212286611455	320.9779054697697
3.1016949152542375	4.710195251629607	7.08722530861528	85.86239117388199	29.303396596898477	53.33464259235019	37.16707148661366	195.65495752074008	-155.7656687630827	-118.36746646671676	391.9427594527634	-33.54362698727577	10.522949755699237	51.79424465315649	-87.43292144224068	-41.87574488893766	-57.638097173599064	11.354414380478651	84.76894936270442	-173.79427769733945	-91.1839803334957	-259.3711338673769	-251.08935105858868	-198.12324946616386	321.32516740433266
3.1186440677966103	3.965071988942892	3.5562114451374125	84.76106385415723	28.388634817053283	52.89024221370376	38.40300330660314	196.69754379042013	-156.8413083181424	-120.61941495033219	392.35313883506785	-28.463035473068768	7.896357361999397	56.63946759812215	-85.69654606822391	-41.914042270049414	-57.287666588047735	11.161014621858879	84.5555682395085	-175.13867519264096	-91.69916771871384	-259.09081310951797	-251.98546240042273	-199.31188389533546	320.97510247324027
3.135593220338983	2.508370403068686	3.302392494382419	79.71602319383396	24.256236416643006	52.80584129668306	33.14059832501073	194.70104153396022	-157.02387332934254	-121.73754217696346	387.7270842192637	-28.56049788841479	7.822007779341314	59.14326337355338	-85.31889220583078	-41.56538502709216	-61.100013499970885	10.324518724426897	85.60265492656497	-174.9895358630183	-91.9162401413494	-259.6397167767208	-251.5801425700304	-201.52658871071498	315.9831435679211
3.152542372881356	1.2754076179997889	1.5920539257832331	76.74735309354485	20.587436901368605	51.84269218593269	31.08848373385195	194.27516627843434	-158.2964160497021	-122.00046201283016	394.7631771254894	-27.616643444478523	7.57825967198305	61.34457655278663	-83.5700298428163	-42.36179800327499	-62.99268459390794	8.829013014558853	85.87839617056132	-172.01297821717978	-92.61441824673098	-259.8987295144896	-252.59907760810623	-201.7965684639759	322.3728867659519
3.169491525423729	0.9676241081945249	-5.1377369508010835	74.24537561507856	17.627725010137823	51.30296918076401	29.975316060532865	193.4116167098909	-160.3795629468566	-123.49399981900459	392.9786717975392	-24.566044857709766	2.995348949634273	64.58575234724407	-81.65457893084854	-42.8467648549605	-64.06981733296324	8.53040006699052	86.03625022416315	-171.95489176497844	-92.19638417781884	-260.39111528832615	-254.28388653251946	-204.18583149261931	318.20501132536026
3.1864406779661016	0.22452860689003412	-12.191841106350426	68.88132294369169	15.57454333608049	49.54137531094712	27.885494306150918	192.8477057544672	-162.7466764984839	-126.43600640913463	393.1676795963227	-22.043395894879062	-2.0333989673279325	68.00930224312661	-80.65935026907853	-43.96753909126698	-65.20412151879172	8.68164969878434	86.93141302534953	-172.07213339392297	-92.54140841635596	-260.2622537592374	-255.54223240495097	-206.75781158190503	311.4361183346934
3.2033898305084745	0.9126882472975125	-13.955836409850678	62.866898547877966	14.621744609687589	47.21996392775732	26.402635750009093	192.54043934249648	-164.48501457956093	-129.6137687226918	393.2626203891389	-18.614857714899333	-4.392588616860745	70.53918108312722	-80.09844260240432	-46.849768300910085	-66.06113046887985	8.558333690720115	87.55588827008745	-171.94030563312566	-93.54147050034555	-260.1388638216294	-256.3011899547446	-209.47987642755808	316.72539995302213
3.2203389830508473	1.4800658146555472	-16.873871930123812	55.570938969150404	12.561144248217683	41.720504768633916	25.592810234277454	191.1989341561384	-166.6371440810066	-129.8758973822238	392.9012245006812	-14.695096920729512	-6.086229111534666	73.9183228116528	-78.51993218786072	-50.02478792961309	-66.39735745825556	8.71114646850926	88.12875890559299	-171.74099443283222	-95.02071611786265	-260.612863343666	-258.01660975724957	-210.6345392565289	314.8281875581402
3.23728813559322	3.0226513175822496	-19.61545763346175	50.50329475345666	6.036939050305676	38.88228183042773	23.266165953265766	190.86520318831387	-167.2063828865637	-134.30749898250795	393.0714016016775	-9.541135150180953	-7.895362092532895	76.91911760634521	-77.2980693269405	-51.52218990097014	-68.30820999151437	8.788672994768197	88.59109501197419	-173.46632359671048	-95.18327603765725	-260.7034397528344	-258.4320306947376	-215.02572133237615	314.5893911816493
3.2542372881355934	7.96483868452298	-19.77370889123119	43.137881668936046	2.710852942677882	32.84739297400274	19.144427674743024	191.19649117343576	-167.99288354033064	-135.0224671212079	391.36689371102227	-3.13441600139467	-10.442561961643442	78.67539833046553	-74.70281104497838	-57.72362074578733	-71.53901558269452	9.186865608780924	89.07829471397763	-171.12886612842365	-96.16673601208826	-260.7606810811016	-258.9504541193666	-214.60976264662506	312.20392100326245
3.2711864406779663	10.05592525882493	-21.169060119252247	37.811528587593216	3.5018294294993013	28.336565298528463	19.180312103055513	189.3730266115216	-167.75734506888082	-139.39275716420883	389.8636517150396	0.5311887719301067	-5.911145250584094	80.5558819789205	-74.22722835592538	-61.491143394079444	-71.12412150431553	9.391788999047234	89.95438935083352	-171.13685498637355	-96.15454160818098	-260.8795128875053	-257.94549924736356	-220.09611725964314	311.9963524876673
3.288135593220339	10.282471582699994	-19.57774320291902	35.75932207398208	1.6285973667682834	27.35925191032249	18.426708725817257	189.30447323264104	-167.6190256960146	-141.05892198944431	381.5807920029895	1.936253428727123	-2.7590275525774066	81.31945320825773	-73.36741571639106	-63.024345218019036	-72.2262426038021	9.401865044063712	89.75657403671396	-171.0128541334939	-95.81795915848943	-261.24317999555393	-257.816900492456	-221.82471618083284	303.83481832244325
3.305084745762712	10.23379576519552	-18.05541797746436	32.35478502393426	-0.2268138725054907	24.423310489776743	16.55722234454668	187.25463358457904	-169.61827568760603	-142.8966266779704	381.77264798341935	3.571836311664576	-0.47759581546493113	82.26626103111185	-74.13025708055952	-65.395721739501	-72.74793472121723	9.568241964513136	90.31818017241118	-170.28868547761297	-95.55696457510469	-262.2934790086627	-259.1527198897457	-225.4716478202987	302.329072636249
3.3220338983050848	10.231147397398214	-20.187189730126565	30.24250883994155	-0.6831070368705777	21.17658093750718	14.788810249815722	186.66835391646904	-169.82504125088155	-146.4060254367161	378.84209701902705	6.370045061839348	-1.109588157654633	82.24570053724926	-73.58742266772781	-67.53453459084072	-73.93035084935504	9.71083434113005	91.23101250165855	-169.59194431083867	-95.45492691634946	-262.3215160629009	-257.74606575008	-228.47862616010758	302.1491279713723
3.3389830508474576	10.268105482549302	-15.67501876093671	28.418406782376547	0.9819525779240887	20.60243354494959	14.975585033666533	186.19499847480733	-170.24443978081604	-149.34918314884086	378.90496179560057	4.568747911136164	0.07922962017318103	83.87028367913443	-74.42792323022874	-67.67128256538041	-73.41582421671623	9.938421598870077	91.68515239136461	-169.54691584625192	-95.39259462641381	-262.4618627317099	-258.3063110023711	-231.89755936529048	300.21527881227297
3.3559322033898304	10.36337702658911	-13.759910700408168	28.76084154786994	4.673946484682742	21.26797433807366	15.305204854768899	187.02197240376708	-170.13434477605378	-155.79898750806066	375.85665421483276	5.189439073468259	-0.4308029557655262	84.36343643599761	-77.29742634811146	-67.04134911503479	-73.08860623501461	11.980673650974126	91.86311171362571	-169.46531986106524	-95.28195914735214	-262.41947319322884	-258.36625957879454	-236.61185921339634	297.6323515146151
3.3728813559322033	11.224227152284318	-10.862606647739767	27.411922487828644	7.5475534581206265	20.08146989169724	16.059599496853526	185.75944713402575	-169.20620885802123	-157.61254057405284	376.8179162503192	6.148265805629933	-0.6661472915192217	84.9066723142693	-79.46866942678157	-67.75134742547029	-72.27048609728539	11.600815704101596	92.35045743713191	-165.15407561496417	-96.25961688455973	-262.25778039873234	-257.32661122226125	-239.30295994240765	299.6130077335562
3.389830508474576	14.748039245444396	-7.826416022477618	26.77107071316217	11.004699473535483	18.199284523134107	17.630606001947786	184.50069374584695	-162.57503461733327	-160.84145161406062	367.90448395406065	8.441355527961264	-0.4520603445301212	84.63392584284922	-81.70451701376831	-69.1114554214415	-70.60036962055175	20.63067712006564	92.90151871792231	-220.60354598276535	-98.56286406716025	-262.45177689159186	-248.94546593196	-243.64813180817362	299.6152560548779
3.406779661016949	11.671626651497691	-6.42150099674754	21.50706703797151	13.305587978165876	16.028759036163105	15.45910994419894	184.39344523249844	-163.8883721627978	-164.02480367875842	368.5214143515006	4.779778189206486	-1.3440435449649613	87.83608390878074	-85.43977409233214	-70.5710841764646	-71.18027616622632	16.367064298198525	93.45873639216013	-262.07848798591493	-97.46853751151055	-262.3103623388054	-251.3223140200013	-246.6300078020116	295.8048459855413
3.4237288135593222	7.066831989406882	-7.039493169269943	21.56099847384309	19.120721996949676	15.119573084864244	16.420442749587366	184.5660077103799	-158.4735069223379	-169.07865347053323	354.8372186486562	3.596228333342222	-5.705452210534372	87.32211863564169	-89.00278848784824	-71.09255825239646	-70.30251866439498	27.2748790742725	93.70931178115643	-230.5669015731694	-97.37143434105062	-262.02122987834963	-244.32349596159634	-250.70838689841125	290.9963252164353
